<?xml version='1.0' encoding='utf-8'?>
<gpx version="1.1" creator="fish_finder" xmlns="http://www.topografix.com/GPX/1/1"><metadata><name>Common dentex 2026-08-10</name></metadata><wpt lat="45.276662" lon="13.594206"><name>01 (8 m)</name><desc>score 0.96 | relief 1.00 | slope 0.90 | shelter 0.98</desc><sym>Fishing Hot Spot</sym></wpt><wpt lat="45.229950" lon="13.595484"><name>02 (6 m)</name><desc>score 0.94 | relief 1.00 | slope 0.86 | shelter 0.98</desc><sym>Fishing Hot Spot</sym></wpt><wpt lat="45.493155" lon="13.495825"><name>03 (6 m)</name><desc>score 0.93 | relief 1.00 | slope 0.83 | shelter 0.98</desc><sym>Fishing Hot Spot</sym></wpt><wpt lat="45.178746" lon="13.598039"><name>04 (5 m)</name><desc>score 0.91 | relief 1.00 | slope 0.91 | shelter 0.98</desc><sym>Fishing Hot Spot</sym></wpt><wpt lat="45.300018" lon="13.585262"><name>05 (8 m)</name><desc>score 0.89 | relief 1.00 | slope 0.74 | shelter 0.98</desc><sym>Fishing Hot Spot</sym></wpt><wpt lat="45.153593" lon="13.599317"><name>06 (7 m)</name><desc>score 0.82 | relief 1.00 | slope 0.55 | shelter 0.98</desc><sym>Fishing Hot Spot</sym></wpt><wpt lat="45.167068" lon="13.592928"><name>07 (7 m)</name><desc>score 0.77 | relief 1.00 | slope 0.45 | shelter 0.96</desc><sym>Fishing Hot Spot</sym></wpt><wpt lat="45.210187" lon="13.589095"><name>08 (9 m)</name><desc>score 0.77 | relief 1.00 | slope 0.43 | shelter 0.96</desc><sym>Fishing Hot Spot</sym></wpt><wpt lat="45.355713" lon="13.549488"><name>09 (5 m)</name><desc>score 0.72 | relief 1.00 | slope 0.32 | shelter 0.95</desc><sym>Fishing Hot Spot</sym></wpt><wpt lat="45.423985" lon="13.518823"><name>10 (5 m)</name><desc>score 0.69 | relief 1.00 | slope 0.21 | shelter 0.98</desc><sym>Fishing Hot Spot</sym></wpt><wpt lat="45.411409" lon="13.517546"><name>11 (7 m)</name><desc>score 0.67 | relief 1.00 | slope 0.91 | shelter 0.00</desc><sym>Fishing Hot Spot</sym></wpt><wpt lat="45.243424" lon="13.598039"><name>12 (5 m)</name><desc>score 0.64 | relief 1.00 | slope 0.84 | shelter 0.00</desc><sym>Fishing Hot Spot</sym></wpt></gpx>