<?xml version='1.0' encoding='utf-8'?>
<gpx version="1.1" creator="fish_finder" xmlns="http://www.topografix.com/GPX/1/1"><metadata><name>Novigrad, Istria 2026-08-08</name></metadata><wpt lat="45.183238" lon="13.598039"><name>01 (2 m)</name><desc>score 1.00 | relief 1.00 | slope 0.99 | shelter 0.99</desc><sym>Fishing Hot Spot</sym></wpt><wpt lat="45.413205" lon="13.522656"><name>02 (3 m)</name><desc>score 0.99 | relief 1.00 | slope 1.00 | shelter 0.98</desc><sym>Fishing Hot Spot</sym></wpt><wpt lat="45.436561" lon="13.517546"><name>03 (0 m)</name><desc>score 0.99 | relief 1.00 | slope 1.00 | shelter 0.98</desc><sym>Fishing Hot Spot</sym></wpt><wpt lat="45.466206" lon="13.511157"><name>04 (0 m)</name><desc>score 0.99 | relief 1.00 | slope 1.00 | shelter 0.98</desc><sym>Fishing Hot Spot</sym></wpt><wpt lat="45.354815" lon="13.550765"><name>05 (0 m)</name><desc>score 0.99 | relief 1.00 | slope 1.00 | shelter 0.97</desc><sym>Fishing Hot Spot</sym></wpt><wpt lat="45.425782" lon="13.521379"><name>06 (3 m)</name><desc>score 0.99 | relief 1.00 | slope 0.97 | shelter 0.98</desc><sym>Fishing Hot Spot</sym></wpt><wpt lat="45.474290" lon="13.507324"><name>07 (1 m)</name><desc>score 0.99 | relief 1.00 | slope 0.96 | shelter 0.99</desc><sym>Fishing Hot Spot</sym></wpt><wpt lat="45.244323" lon="13.598039"><name>08 (4 m)</name><desc>score 0.99 | relief 1.00 | slope 0.96 | shelter 0.98</desc><sym>Fishing Hot Spot</sym></wpt><wpt lat="45.164373" lon="13.599317"><name>09 (5 m)</name><desc>score 0.98 | relief 1.00 | slope 0.95 | shelter 0.98</desc><sym>Fishing Hot Spot</sym></wpt><wpt lat="45.496748" lon="13.497103"><name>10 (2 m)</name><desc>score 0.97 | relief 1.00 | slope 0.90 | shelter 0.98</desc><sym>Fishing Hot Spot</sym></wpt><wpt lat="45.454527" lon="13.514990"><name>11 (4 m)</name><desc>score 0.97 | relief 1.00 | slope 0.88 | shelter 0.98</desc><sym>Fishing Hot Spot</sym></wpt><wpt lat="45.277560" lon="13.595484"><name>12 (8 m)</name><desc>score 0.96 | relief 1.00 | slope 0.90 | shelter 0.97</desc><sym>Fishing Hot Spot</sym></wpt><wpt lat="45.399731" lon="13.534156"><name>13 (3 m)</name><desc>score 0.96 | relief 1.00 | slope 0.85 | shelter 0.98</desc><sym>Fishing Hot Spot</sym></wpt><wpt lat="45.393442" lon="13.535433"><name>14 (2 m)</name><desc>score 0.96 | relief 1.00 | slope 0.84 | shelter 0.98</desc><sym>Fishing Hot Spot</sym></wpt><wpt lat="45.218272" lon="13.591651"><name>15 (6 m)</name><desc>score 0.95 | relief 1.00 | slope 0.80 | shelter 0.98</desc><sym>Fishing Hot Spot</sym></wpt><wpt lat="45.261391" lon="13.578874"><name>16 (5 m)</name><desc>score 0.95 | relief 1.00 | slope 0.80 | shelter 0.98</desc><sym>Fishing Hot Spot</sym></wpt><wpt lat="45.252407" lon="13.591651"><name>17 (9 m)</name><desc>score 0.94 | relief 1.00 | slope 0.78 | shelter 0.98</desc><sym>Fishing Hot Spot</sym></wpt><wpt lat="45.379968" lon="13.539266"><name>18 (0 m)</name><desc>score 0.94 | relief 1.00 | slope 0.77 | shelter 0.98</desc><sym>Fishing Hot Spot</sym></wpt><wpt lat="45.313493" lon="13.573763"><name>19 (0 m)</name><desc>score 0.94 | relief 1.00 | slope 0.75 | shelter 0.99</desc><sym>Fishing Hot Spot</sym></wpt><wpt lat="45.230848" lon="13.596761"><name>20 (4 m)</name><desc>score 0.94 | relief 1.00 | slope 0.93 | shelter 0.86</desc><sym>Fishing Hot Spot</sym></wpt><wpt lat="45.370985" lon="13.541822"><name>21 (5 m)</name><desc>score 0.93 | relief 1.00 | slope 0.74 | shelter 0.98</desc><sym>Fishing Hot Spot</sym></wpt><wpt lat="45.323374" lon="13.550765"><name>22 (3 m)</name><desc>score 0.93 | relief 1.00 | slope 0.74 | shelter 0.98</desc><sym>Fishing Hot Spot</sym></wpt><wpt lat="45.342239" lon="13.543099"><name>23 (4 m)</name><desc>score 0.93 | relief 1.00 | slope 0.71 | shelter 0.98</desc><sym>Fishing Hot Spot</sym></wpt><wpt lat="45.299120" lon="13.583985"><name>24 (5 m)</name><desc>score 0.92 | relief 1.00 | slope 0.78 | shelter 0.91</desc><sym>Fishing Hot Spot</sym></wpt><wpt lat="45.192221" lon="13.582707"><name>25 (6 m)</name><desc>score 0.89 | relief 1.00 | slope 0.56 | shelter 0.99</desc><sym>Fishing Hot Spot</sym></wpt><wpt lat="45.279357" lon="13.580152"><name>26 (7 m)</name><desc>score 0.89 | relief 1.00 | slope 0.67 | shelter 0.90</desc><sym>Fishing Hot Spot</sym></wpt><wpt lat="45.289238" lon="13.575041"><name>27 (5 m)</name><desc>score 0.87 | relief 1.00 | slope 0.53 | shelter 0.95</desc><sym>Fishing Hot Spot</sym></wpt><wpt lat="45.203000" lon="13.585262"><name>28 (10 m)</name><desc>score 0.86 | relief 1.00 | slope 0.44 | shelter 0.98</desc><sym>Fishing Hot Spot</sym></wpt><wpt lat="45.334154" lon="13.543099"><name>29 (0 m)</name><desc>score 0.59 | relief 0.17 | slope 0.74 | shelter 0.98</desc><sym>Fishing Hot Spot</sym></wpt><wpt lat="45.446443" lon="13.433219"><name>30 (26 m)</name><desc>score 0.56 | relief 0.64 | slope 0.22 | shelter 0.69</desc><sym>Fishing Hot Spot</sym></wpt></gpx>