<?xml version='1.0' encoding='utf-8'?>
<gpx version="1.1" creator="fish_finder" xmlns="http://www.topografix.com/GPX/1/1"><metadata><name>Brown meagre 2026-08-07</name></metadata><wpt lat="45.410510" lon="13.517546"><name>01 (10 m)</name><desc>score 0.95 | relief 1.00 | slope 0.86 | shelter 0.97</desc><sym>Fishing Hot Spot</sym></wpt><wpt lat="45.487765" lon="13.485604"><name>02 (13 m)</name><desc>score 0.91 | relief 1.00 | slope 0.69 | shelter 0.98</desc><sym>Fishing Hot Spot</sym></wpt><wpt lat="45.281153" lon="13.594206"><name>03 (11 m)</name><desc>score 0.89 | relief 1.00 | slope 0.60 | shelter 0.99</desc><sym>Fishing Hot Spot</sym></wpt><wpt lat="45.264984" lon="13.571208"><name>04 (10 m)</name><desc>score 0.89 | relief 1.00 | slope 0.60 | shelter 0.98</desc><sym>Fishing Hot Spot</sym></wpt><wpt lat="45.289238" lon="13.568653"><name>05 (10 m)</name><desc>score 0.88 | relief 0.98 | slope 0.64 | shelter 0.95</desc><sym>Fishing Hot Spot</sym></wpt><wpt lat="45.247018" lon="13.589095"><name>06 (11 m)</name><desc>score 0.88 | relief 1.00 | slope 0.58 | shelter 0.98</desc><sym>Fishing Hot Spot</sym></wpt><wpt lat="45.421290" lon="13.511157"><name>07 (11 m)</name><desc>score 0.88 | relief 1.00 | slope 0.57 | shelter 0.98</desc><sym>Fishing Hot Spot</sym></wpt><wpt lat="45.373679" lon="13.534156"><name>08 (10 m)</name><desc>score 0.87 | relief 1.00 | slope 0.55 | shelter 0.98</desc><sym>Fishing Hot Spot</sym></wpt><wpt lat="45.163475" lon="13.582707"><name>09 (14 m)</name><desc>score 0.87 | relief 1.00 | slope 0.53 | shelter 0.99</desc><sym>Fishing Hot Spot</sym></wpt><wpt lat="45.205695" lon="13.578874"><name>10 (14 m)</name><desc>score 0.87 | relief 0.96 | slope 0.60 | shelter 0.98</desc><sym>Fishing Hot Spot</sym></wpt><wpt lat="45.274865" lon="13.563542"><name>11 (10 m)</name><desc>score 0.87 | relief 1.00 | slope 0.59 | shelter 0.93</desc><sym>Fishing Hot Spot</sym></wpt><wpt lat="45.154492" lon="13.596761"><name>12 (11 m)</name><desc>score 0.86 | relief 1.00 | slope 0.53 | shelter 0.98</desc><sym>Fishing Hot Spot</sym></wpt></gpx>