<?xml version='1.0' encoding='utf-8'?>
<gpx version="1.1" creator="fish_finder" xmlns="http://www.topografix.com/GPX/1/1"><metadata><name>Novigrad, Istria 2026-08-05</name></metadata><wpt lat="45.277560" lon="13.595484"><name>01 (8 m)</name><desc>score 0.96 | relief 1.00 | slope 0.90 | shelter 0.95</desc><sym>Fishing Hot Spot</sym></wpt><wpt lat="45.253306" lon="13.590373"><name>02 (8 m)</name><desc>score 0.93 | relief 1.00 | slope 0.75 | shelter 0.98</desc><sym>Fishing Hot Spot</sym></wpt><wpt lat="45.300018" lon="13.585262"><name>03 (8 m)</name><desc>score 0.93 | relief 1.00 | slope 0.74 | shelter 0.96</desc><sym>Fishing Hot Spot</sym></wpt><wpt lat="45.206594" lon="13.585262"><name>04 (10 m)</name><desc>score 0.86 | relief 1.00 | slope 0.41 | shelter 0.98</desc><sym>Fishing Hot Spot</sym></wpt><wpt lat="45.178746" lon="13.592928"><name>05 (7 m)</name><desc>score 0.70 | relief 1.00 | slope 0.17 | shelter 0.97</desc><sym>Fishing Hot Spot</sym></wpt><wpt lat="45.164373" lon="13.594206"><name>06 (6 m)</name><desc>score 0.69 | relief 1.00 | slope 0.56 | shelter 0.96</desc><sym>Fishing Hot Spot</sym></wpt><wpt lat="45.229051" lon="13.587818"><name>07 (7 m)</name><desc>score 0.69 | relief 1.00 | slope 0.35 | shelter 0.99</desc><sym>Fishing Hot Spot</sym></wpt><wpt lat="45.150898" lon="13.595484"><name>08 (8 m)</name><desc>score 0.68 | relief 0.59 | slope 0.38 | shelter 0.99</desc><sym>Fishing Hot Spot</sym></wpt><wpt lat="45.161678" lon="13.581429"><name>09 (9 m)</name><desc>score 0.63 | relief 1.00 | slope 0.47 | shelter 0.29</desc><sym>Fishing Hot Spot</sym></wpt><wpt lat="45.410510" lon="13.517546"><name>10 (10 m)</name><desc>score 0.61 | relief 1.00 | slope 0.86 | shelter 0.00</desc><sym>Fishing Hot Spot</sym></wpt><wpt lat="45.277560" lon="13.567375"><name>11 (10 m)</name><desc>score 0.58 | relief 1.00 | slope 0.70 | shelter 0.00</desc><sym>Fishing Hot Spot</sym></wpt><wpt lat="45.350323" lon="13.535433"><name>12 (9 m)</name><desc>score 0.57 | relief 1.00 | slope 0.70 | shelter 0.00</desc><sym>Fishing Hot Spot</sym></wpt><wpt lat="45.487765" lon="13.485604"><name>13 (13 m)</name><desc>score 0.57 | relief 1.00 | slope 0.69 | shelter 0.00</desc><sym>Fishing Hot Spot</sym></wpt><wpt lat="45.216475" lon="13.591651"><name>14 (8 m)</name><desc>score 0.57 | relief 1.00 | slope 0.78 | shelter 0.00</desc><sym>Fishing Hot Spot</sym></wpt><wpt lat="45.289238" lon="13.568653"><name>15 (10 m)</name><desc>score 0.56 | relief 0.98 | slope 0.64 | shelter 0.00</desc><sym>Fishing Hot Spot</sym></wpt><wpt lat="45.261391" lon="13.572486"><name>16 (9 m)</name><desc>score 0.56 | relief 1.00 | slope 0.61 | shelter 0.00</desc><sym>Fishing Hot Spot</sym></wpt><wpt lat="45.190424" lon="13.578874"><name>17 (9 m)</name><desc>score 0.55 | relief 1.00 | slope 0.58 | shelter 0.00</desc><sym>Fishing Hot Spot</sym></wpt><wpt lat="45.361103" lon="13.539266"><name>18 (9 m)</name><desc>score 0.55 | relief 1.00 | slope 0.57 | shelter 0.00</desc><sym>Fishing Hot Spot</sym></wpt><wpt lat="45.421290" lon="13.511157"><name>19 (11 m)</name><desc>score 0.55 | relief 1.00 | slope 0.57 | shelter 0.00</desc><sym>Fishing Hot Spot</sym></wpt><wpt lat="45.373679" lon="13.534156"><name>20 (10 m)</name><desc>score 0.54 | relief 1.00 | slope 0.55 | shelter 0.00</desc><sym>Fishing Hot Spot</sym></wpt><wpt lat="45.196712" lon="13.567375"><name>21 (14 m)</name><desc>score 0.54 | relief 1.00 | slope 0.55 | shelter 0.00</desc><sym>Fishing Hot Spot</sym></wpt><wpt lat="45.308103" lon="13.539266"><name>22 (16 m)</name><desc>score 0.54 | relief 1.00 | slope 0.54 | shelter 0.00</desc><sym>Fishing Hot Spot</sym></wpt><wpt lat="45.271272" lon="13.577596"><name>23 (8 m)</name><desc>score 0.54 | relief 1.00 | slope 0.53 | shelter 0.00</desc><sym>Fishing Hot Spot</sym></wpt><wpt lat="45.383561" lon="13.530323"><name>24 (9 m)</name><desc>score 0.54 | relief 1.00 | slope 0.52 | shelter 0.00</desc><sym>Fishing Hot Spot</sym></wpt><wpt lat="45.435663" lon="13.509880"><name>25 (8 m)</name><desc>score 0.53 | relief 1.00 | slope 0.51 | shelter 0.00</desc><sym>Fishing Hot Spot</sym></wpt><wpt lat="45.193119" lon="13.558431"><name>26 (17 m)</name><desc>score 0.53 | relief 1.00 | slope 0.51 | shelter 0.00</desc><sym>Fishing Hot Spot</sym></wpt><wpt lat="45.318883" lon="13.536711"><name>27 (12 m)</name><desc>score 0.53 | relief 1.00 | slope 0.50 | shelter 0.00</desc><sym>Fishing Hot Spot</sym></wpt><wpt lat="45.337747" lon="13.536711"><name>28 (10 m)</name><desc>score 0.53 | relief 1.00 | slope 0.50 | shelter 0.00</desc><sym>Fishing Hot Spot</sym></wpt><wpt lat="45.238034" lon="13.590373"><name>29 (10 m)</name><desc>score 0.53 | relief 1.00 | slope 0.50 | shelter 0.00</desc><sym>Fishing Hot Spot</sym></wpt><wpt lat="45.321577" lon="13.548210"><name>30 (9 m)</name><desc>score 0.52 | relief 1.00 | slope 0.47 | shelter 0.00</desc><sym>Fishing Hot Spot</sym></wpt></gpx>