<?xml version='1.0' encoding='utf-8'?>
<gpx version="1.1" creator="fish_finder" xmlns="http://www.topografix.com/GPX/1/1"><metadata><name>fratar / two-banded seabream 2026-07-28</name></metadata><wpt lat="45.321865" lon="13.549658"><name>01 (5 m)</name><desc>score 0.77 | relief 1.00 | slope 0.63 | shelter 0.61</desc><sym>Fishing Hot Spot</sym></wpt><wpt lat="45.336238" lon="13.538159"><name>02 (8 m)</name><desc>score 0.76 | relief 1.00 | slope 0.56 | shelter 0.66</desc><sym>Fishing Hot Spot</sym></wpt><wpt lat="45.345221" lon="13.538159"><name>03 (10 m)</name><desc>score 0.73 | relief 0.96 | slope 0.53 | shelter 0.66</desc><sym>Fishing Hot Spot</sym></wpt><wpt lat="45.311983" lon="13.541992"><name>04 (12 m)</name><desc>score 0.70 | relief 1.00 | slope 0.39 | shelter 0.64</desc><sym>Fishing Hot Spot</sym></wpt><wpt lat="45.313780" lon="13.557324"><name>05 (6 m)</name><desc>score 0.69 | relief 1.00 | slope 0.41 | shelter 0.58</desc><sym>Fishing Hot Spot</sym></wpt><wpt lat="45.309289" lon="13.548381"><name>06 (11 m)</name><desc>score 0.69 | relief 1.00 | slope 0.36 | shelter 0.62</desc><sym>Fishing Hot Spot</sym></wpt><wpt lat="45.312882" lon="13.576490"><name>07 (5 m)</name><desc>score 0.66 | relief 1.00 | slope 0.39 | shelter 0.51</desc><sym>Fishing Hot Spot</sym></wpt><wpt lat="45.321865" lon="13.536882"><name>08 (12 m)</name><desc>score 0.65 | relief 0.99 | slope 0.22 | shelter 0.66</desc><sym>Fishing Hot Spot</sym></wpt><wpt lat="45.303899" lon="13.587989"><name>09 (6 m)</name><desc>score 0.62 | relief 0.97 | slope 0.35 | shelter 0.46</desc><sym>Fishing Hot Spot</sym></wpt><wpt lat="45.312882" lon="13.563713"><name>10 (7 m)</name><desc>score 0.59 | relief 0.90 | slope 0.24 | shelter 0.56</desc><sym>Fishing Hot Spot</sym></wpt><wpt lat="45.302102" lon="13.568823"><name>11 (8 m)</name><desc>score 0.55 | relief 0.77 | slope 0.31 | shelter 0.54</desc><sym>Fishing Hot Spot</sym></wpt></gpx>