<?xml version='1.0' encoding='utf-8'?>
<gpx version="1.1" creator="fish_finder" xmlns="http://www.topografix.com/GPX/1/1"><metadata><name>kavala / brown meagre 2026-07-31</name></metadata><wpt lat="45.412307" lon="13.516268"><name>01 (11 m)</name><desc>score 0.95 | relief 1.00 | slope 0.84 | shelter 0.98</desc><sym>Fishing Hot Spot</sym></wpt><wpt lat="45.281153" lon="13.594206"><name>02 (11 m)</name><desc>score 0.89 | relief 1.00 | slope 0.60 | shelter 0.98</desc><sym>Fishing Hot Spot</sym></wpt><wpt lat="45.498545" lon="13.494548"><name>03 (10 m)</name><desc>score 0.88 | relief 1.00 | slope 0.58 | shelter 0.99</desc><sym>Fishing Hot Spot</sym></wpt><wpt lat="45.260492" lon="13.573763"><name>04 (10 m)</name><desc>score 0.88 | relief 1.00 | slope 0.58 | shelter 0.98</desc><sym>Fishing Hot Spot</sym></wpt><wpt lat="45.247018" lon="13.589095"><name>05 (11 m)</name><desc>score 0.87 | relief 1.00 | slope 0.58 | shelter 0.95</desc><sym>Fishing Hot Spot</sym></wpt><wpt lat="45.373679" lon="13.534156"><name>06 (10 m)</name><desc>score 0.86 | relief 1.00 | slope 0.55 | shelter 0.93</desc><sym>Fishing Hot Spot</sym></wpt><wpt lat="45.288340" lon="13.576319"><name>07 (12 m)</name><desc>score 0.85 | relief 1.00 | slope 0.49 | shelter 0.97</desc><sym>Fishing Hot Spot</sym></wpt><wpt lat="45.202102" lon="13.585262"><name>08 (10 m)</name><desc>score 0.85 | relief 1.00 | slope 0.48 | shelter 0.98</desc><sym>Fishing Hot Spot</sym></wpt><wpt lat="45.154492" lon="13.596761"><name>09 (11 m)</name><desc>score 0.84 | relief 1.00 | slope 0.53 | shelter 0.90</desc><sym>Fishing Hot Spot</sym></wpt><wpt lat="45.161678" lon="13.599317"><name>10 (11 m)</name><desc>score 0.83 | relief 1.00 | slope 0.41 | shelter 0.98</desc><sym>Fishing Hot Spot</sym></wpt><wpt lat="45.169763" lon="13.595484"><name>11 (10 m)</name><desc>score 0.83 | relief 1.00 | slope 0.40 | shelter 0.98</desc><sym>Fishing Hot Spot</sym></wpt><wpt lat="45.190424" lon="13.581429"><name>12 (11 m)</name><desc>score 0.83 | relief 1.00 | slope 0.40 | shelter 0.98</desc><sym>Fishing Hot Spot</sym></wpt><wpt lat="45.217373" lon="13.587818"><name>13 (13 m)</name><desc>score 0.83 | relief 1.00 | slope 0.39 | shelter 0.97</desc><sym>Fishing Hot Spot</sym></wpt><wpt lat="45.383561" lon="13.529045"><name>14 (11 m)</name><desc>score 0.82 | relief 1.00 | slope 0.50 | shelter 0.86</desc><sym>Fishing Hot Spot</sym></wpt><wpt lat="45.274865" lon="13.563542"><name>15 (10 m)</name><desc>score 0.82 | relief 1.00 | slope 0.59 | shelter 0.78</desc><sym>Fishing Hot Spot</sym></wpt><wpt lat="45.423087" lon="13.512435"><name>16 (10 m)</name><desc>score 0.82 | relief 0.98 | slope 0.48 | shelter 0.90</desc><sym>Fishing Hot Spot</sym></wpt><wpt lat="45.323374" lon="13.546932"><name>17 (10 m)</name><desc>score 0.81 | relief 1.00 | slope 0.33 | shelter 0.98</desc><sym>Fishing Hot Spot</sym></wpt><wpt lat="45.313493" lon="13.543099"><name>18 (11 m)</name><desc>score 0.80 | relief 1.00 | slope 0.35 | shelter 0.92</desc><sym>Fishing Hot Spot</sym></wpt><wpt lat="45.155390" lon="13.586540"><name>19 (11 m)</name><desc>score 0.79 | relief 0.86 | slope 0.51 | shelter 0.95</desc><sym>Fishing Hot Spot</sym></wpt><wpt lat="45.478782" lon="13.494548"><name>20 (10 m)</name><desc>score 0.79 | relief 1.00 | slope 0.25 | shelter 0.97</desc><sym>Fishing Hot Spot</sym></wpt><wpt lat="45.430273" lon="13.513713"><name>21 (10 m)</name><desc>score 0.79 | relief 0.98 | slope 0.38 | shelter 0.94</desc><sym>Fishing Hot Spot</sym></wpt><wpt lat="45.353917" lon="13.531600"><name>22 (11 m)</name><desc>score 0.78 | relief 1.00 | slope 0.52 | shelter 0.69</desc><sym>Fishing Hot Spot</sym></wpt><wpt lat="45.345832" lon="13.536711"><name>23 (10 m)</name><desc>score 0.77 | relief 0.95 | slope 0.60 | shelter 0.66</desc><sym>Fishing Hot Spot</sym></wpt><wpt lat="45.468002" lon="13.495825"><name>24 (10 m)</name><desc>score 0.76 | relief 0.89 | slope 0.51 | shelter 0.91</desc><sym>Fishing Hot Spot</sym></wpt><wpt lat="45.336849" lon="13.536711"><name>25 (11 m)</name><desc>score 0.74 | relief 0.98 | slope 0.52 | shelter 0.60</desc><sym>Fishing Hot Spot</sym></wpt><wpt lat="45.440155" lon="13.500936"><name>26 (10 m)</name><desc>score 0.74 | relief 0.90 | slope 0.46 | shelter 0.76</desc><sym>Fishing Hot Spot</sym></wpt><wpt lat="45.273967" lon="13.578874"><name>27 (10 m)</name><desc>score 0.73 | relief 0.87 | slope 0.33 | shelter 0.90</desc><sym>Fishing Hot Spot</sym></wpt><wpt lat="45.269475" lon="13.552043"><name>28 (18 m)</name><desc>score 0.71 | relief 1.00 | slope 0.28 | shelter 0.68</desc><sym>Fishing Hot Spot</sym></wpt><wpt lat="45.244323" lon="13.578874"><name>29 (11 m)</name><desc>score 0.69 | relief 0.88 | slope 0.14 | shelter 0.93</desc><sym>Fishing Hot Spot</sym></wpt><wpt lat="45.300916" lon="13.578874"><name>30 (10 m)</name><desc>score 0.69 | relief 0.97 | slope 0.28 | shelter 0.93</desc><sym>Fishing Hot Spot</sym></wpt></gpx>