<?xml version='1.0' encoding='utf-8'?>
<gpx version="1.1" creator="fish_finder" xmlns="http://www.topografix.com/GPX/1/1"><metadata><name>šarag / white seabream 2026-08-05</name></metadata><wpt lat="45.244323" lon="13.598039"><name>01 (4 m)</name><desc>score 0.98 | relief 1.00 | slope 0.96 | shelter 0.98</desc><sym>Fishing Hot Spot</sym></wpt><wpt lat="45.164373" lon="13.599317"><name>02 (5 m)</name><desc>score 0.98 | relief 1.00 | slope 0.95 | shelter 0.98</desc><sym>Fishing Hot Spot</sym></wpt><wpt lat="45.473392" lon="13.508602"><name>03 (4 m)</name><desc>score 0.97 | relief 1.00 | slope 0.92 | shelter 0.98</desc><sym>Fishing Hot Spot</sym></wpt><wpt lat="45.180543" lon="13.599317"><name>04 (4 m)</name><desc>score 0.97 | relief 1.00 | slope 0.95 | shelter 0.95</desc><sym>Fishing Hot Spot</sym></wpt><wpt lat="45.357510" lon="13.550765"><name>05 (5 m)</name><desc>score 0.97 | relief 1.00 | slope 0.92 | shelter 0.98</desc><sym>Fishing Hot Spot</sym></wpt><wpt lat="45.261391" lon="13.578874"><name>06 (5 m)</name><desc>score 0.93 | relief 1.00 | slope 0.80 | shelter 0.98</desc><sym>Fishing Hot Spot</sym></wpt><wpt lat="45.252407" lon="13.591651"><name>07 (9 m)</name><desc>score 0.92 | relief 1.00 | slope 0.78 | shelter 0.98</desc><sym>Fishing Hot Spot</sym></wpt><wpt lat="45.219170" lon="13.590373"><name>08 (8 m)</name><desc>score 0.87 | relief 1.00 | slope 0.64 | shelter 0.98</desc><sym>Fishing Hot Spot</sym></wpt><wpt lat="45.324272" lon="13.549488"><name>09 (6 m)</name><desc>score 0.87 | relief 1.00 | slope 0.62 | shelter 0.98</desc><sym>Fishing Hot Spot</sym></wpt><wpt lat="45.281153" lon="13.594206"><name>10 (11 m)</name><desc>score 0.86 | relief 1.00 | slope 0.60 | shelter 0.98</desc><sym>Fishing Hot Spot</sym></wpt><wpt lat="45.300916" lon="13.586540"><name>11 (7 m)</name><desc>score 0.86 | relief 1.00 | slope 0.69 | shelter 0.86</desc><sym>Fishing Hot Spot</sym></wpt><wpt lat="45.313493" lon="13.569930"><name>12 (5 m)</name><desc>score 0.85 | relief 1.00 | slope 0.57 | shelter 0.98</desc><sym>Fishing Hot Spot</sym></wpt><wpt lat="45.192221" lon="13.582707"><name>13 (6 m)</name><desc>score 0.85 | relief 1.00 | slope 0.56 | shelter 0.99</desc><sym>Fishing Hot Spot</sym></wpt><wpt lat="45.204797" lon="13.583985"><name>14 (10 m)</name><desc>score 0.78 | relief 1.00 | slope 0.35 | shelter 0.98</desc><sym>Fishing Hot Spot</sym></wpt><wpt lat="45.156288" lon="13.600594"><name>15 (6 m)</name><desc>score 0.77 | relief 1.00 | slope 0.36 | shelter 0.93</desc><sym>Fishing Hot Spot</sym></wpt><wpt lat="45.456324" lon="13.512435"><name>16 (4 m)</name><desc>score 0.75 | relief 1.00 | slope 0.62 | shelter 0.98</desc><sym>Fishing Hot Spot</sym></wpt><wpt lat="45.447341" lon="13.512435"><name>17 (5 m)</name><desc>score 0.71 | relief 1.00 | slope 0.58 | shelter 0.48</desc><sym>Fishing Hot Spot</sym></wpt><wpt lat="45.230848" lon="13.596761"><name>18 (4 m)</name><desc>score 0.68 | relief 1.00 | slope 0.93 | shelter 0.00</desc><sym>Fishing Hot Spot</sym></wpt><wpt lat="45.411409" lon="13.517546"><name>19 (7 m)</name><desc>score 0.67 | relief 1.00 | slope 0.91 | shelter 0.00</desc><sym>Fishing Hot Spot</sym></wpt><wpt lat="45.498545" lon="13.495825"><name>20 (8 m)</name><desc>score 0.67 | relief 0.39 | slope 0.68 | shelter 0.99</desc><sym>Fishing Hot Spot</sym></wpt><wpt lat="45.400629" lon="13.532878"><name>21 (6 m)</name><desc>score 0.62 | relief 1.00 | slope 0.76 | shelter 0.00</desc><sym>Fishing Hot Spot</sym></wpt><wpt lat="45.280255" lon="13.578874"><name>22 (8 m)</name><desc>score 0.61 | relief 1.00 | slope 0.74 | shelter 0.00</desc><sym>Fishing Hot Spot</sym></wpt><wpt lat="45.370985" lon="13.541822"><name>23 (5 m)</name><desc>score 0.61 | relief 1.00 | slope 0.74 | shelter 0.00</desc><sym>Fishing Hot Spot</sym></wpt><wpt lat="45.390747" lon="13.535433"><name>24 (4 m)</name><desc>score 0.61 | relief 1.00 | slope 0.73 | shelter 0.00</desc><sym>Fishing Hot Spot</sym></wpt><wpt lat="45.350323" lon="13.535433"><name>25 (9 m)</name><desc>score 0.60 | relief 1.00 | slope 0.70 | shelter 0.00</desc><sym>Fishing Hot Spot</sym></wpt><wpt lat="45.487765" lon="13.485604"><name>26 (13 m)</name><desc>score 0.60 | relief 1.00 | slope 0.69 | shelter 0.00</desc><sym>Fishing Hot Spot</sym></wpt><wpt lat="45.341340" lon="13.543099"><name>27 (4 m)</name><desc>score 0.59 | relief 1.00 | slope 0.73 | shelter 0.00</desc><sym>Fishing Hot Spot</sym></wpt><wpt lat="45.288340" lon="13.569930"><name>28 (7 m)</name><desc>score 0.58 | relief 1.00 | slope 0.62 | shelter 0.00</desc><sym>Fishing Hot Spot</sym></wpt><wpt lat="45.176051" lon="13.583985"><name>29 (4 m)</name><desc>score 0.57 | relief 0.52 | slope 0.23 | shelter 0.99</desc><sym>Fishing Hot Spot</sym></wpt><wpt lat="45.464409" lon="13.511157"><name>30 (4 m)</name><desc>score 0.57 | relief 1.00 | slope 0.59 | shelter 0.00</desc><sym>Fishing Hot Spot</sym></wpt></gpx>