<?xml version='1.0' encoding='utf-8'?>
<gpx version="1.1" creator="fish_finder" xmlns="http://www.topografix.com/GPX/1/1"><metadata><name>Two-banded seabream 2026-08-12</name></metadata><wpt lat="45.276662" lon="13.594206"><name>01 (8 m)</name><desc>score 0.96 | relief 1.00 | slope 0.90 | shelter 0.96</desc><sym>Fishing Hot Spot</sym></wpt><wpt lat="45.253306" lon="13.590373"><name>02 (8 m)</name><desc>score 0.91 | relief 1.00 | slope 0.75 | shelter 0.98</desc><sym>Fishing Hot Spot</sym></wpt><wpt lat="45.299120" lon="13.581429"><name>03 (6 m)</name><desc>score 0.88 | relief 1.00 | slope 0.65 | shelter 0.98</desc><sym>Fishing Hot Spot</sym></wpt><wpt lat="45.178746" lon="13.596761"><name>04 (5 m)</name><desc>score 0.84 | relief 1.00 | slope 0.53 | shelter 0.95</desc><sym>Fishing Hot Spot</sym></wpt><wpt lat="45.162576" lon="13.598039"><name>05 (6 m)</name><desc>score 0.82 | relief 1.00 | slope 0.47 | shelter 0.95</desc><sym>Fishing Hot Spot</sym></wpt><wpt lat="45.206594" lon="13.585262"><name>06 (10 m)</name><desc>score 0.81 | relief 1.00 | slope 0.41 | shelter 0.98</desc><sym>Fishing Hot Spot</sym></wpt><wpt lat="45.192221" lon="13.581429"><name>07 (5 m)</name><desc>score 0.80 | relief 1.00 | slope 0.37 | shelter 0.99</desc><sym>Fishing Hot Spot</sym></wpt><wpt lat="45.229051" lon="13.587818"><name>08 (7 m)</name><desc>score 0.79 | relief 1.00 | slope 0.35 | shelter 0.99</desc><sym>Fishing Hot Spot</sym></wpt><wpt lat="45.494053" lon="13.490715"><name>09 (12 m)</name><desc>score 0.77 | relief 1.00 | slope 0.61 | shelter 0.65</desc><sym>Fishing Hot Spot</sym></wpt><wpt lat="45.411409" lon="13.517546"><name>10 (7 m)</name><desc>score 0.67 | relief 1.00 | slope 0.91 | shelter 0.00</desc><sym>Fishing Hot Spot</sym></wpt><wpt lat="45.243424" lon="13.598039"><name>11 (5 m)</name><desc>score 0.65 | relief 1.00 | slope 0.84 | shelter 0.00</desc><sym>Fishing Hot Spot</sym></wpt><wpt lat="45.150898" lon="13.595484"><name>12 (8 m)</name><desc>score 0.65 | relief 0.59 | slope 0.38 | shelter 0.99</desc><sym>Fishing Hot Spot</sym></wpt></gpx>