<?xml version='1.0' encoding='utf-8'?>
<gpx version="1.1" creator="fish_finder" xmlns="http://www.topografix.com/GPX/1/1"><metadata><name>White seabream 2026-08-05</name></metadata><wpt lat="45.276662" lon="13.594206"><name>01 (8 m)</name><desc>score 0.96 | relief 1.00 | slope 0.90 | shelter 0.96</desc><sym>Fishing Hot Spot</sym></wpt><wpt lat="45.178746" lon="13.598039"><name>02 (5 m)</name><desc>score 0.95 | relief 1.00 | slope 0.91 | shelter 0.95</desc><sym>Fishing Hot Spot</sym></wpt><wpt lat="45.299120" lon="13.583985"><name>03 (5 m)</name><desc>score 0.92 | relief 1.00 | slope 0.78 | shelter 0.98</desc><sym>Fishing Hot Spot</sym></wpt><wpt lat="45.253306" lon="13.590373"><name>04 (8 m)</name><desc>score 0.91 | relief 1.00 | slope 0.75 | shelter 0.98</desc><sym>Fishing Hot Spot</sym></wpt><wpt lat="45.206594" lon="13.585262"><name>05 (10 m)</name><desc>score 0.80 | relief 1.00 | slope 0.41 | shelter 0.98</desc><sym>Fishing Hot Spot</sym></wpt><wpt lat="45.163475" lon="13.594206"><name>06 (12 m)</name><desc>score 0.79 | relief 1.00 | slope 0.40 | shelter 0.96</desc><sym>Fishing Hot Spot</sym></wpt><wpt lat="45.192221" lon="13.581429"><name>07 (5 m)</name><desc>score 0.79 | relief 1.00 | slope 0.37 | shelter 0.99</desc><sym>Fishing Hot Spot</sym></wpt><wpt lat="45.229051" lon="13.587818"><name>08 (7 m)</name><desc>score 0.79 | relief 1.00 | slope 0.35 | shelter 0.99</desc><sym>Fishing Hot Spot</sym></wpt><wpt lat="45.244323" lon="13.598039"><name>09 (4 m)</name><desc>score 0.69 | relief 1.00 | slope 0.96 | shelter 0.00</desc><sym>Fishing Hot Spot</sym></wpt><wpt lat="45.230848" lon="13.596761"><name>10 (4 m)</name><desc>score 0.68 | relief 1.00 | slope 0.93 | shelter 0.00</desc><sym>Fishing Hot Spot</sym></wpt><wpt lat="45.473392" lon="13.508602"><name>11 (4 m)</name><desc>score 0.68 | relief 1.00 | slope 0.92 | shelter 0.00</desc><sym>Fishing Hot Spot</sym></wpt><wpt lat="45.357510" lon="13.550765"><name>12 (5 m)</name><desc>score 0.67 | relief 1.00 | slope 0.92 | shelter 0.00</desc><sym>Fishing Hot Spot</sym></wpt></gpx>