<?xml version='1.0' encoding='utf-8'?>
<gpx version="1.1" creator="fish_finder" xmlns="http://www.topografix.com/GPX/1/1"><metadata><name>Gilthead seabream 2026-08-08</name></metadata><wpt lat="45.179644" lon="13.599317"><name>01 (4 m)</name><desc>score 0.98 | relief 1.00 | slope 1.00 | shelter 0.94</desc><sym>Fishing Hot Spot</sym></wpt><wpt lat="45.276662" lon="13.594206"><name>02 (8 m)</name><desc>score 0.95 | relief 1.00 | slope 0.90 | shelter 0.97</desc><sym>Fishing Hot Spot</sym></wpt><wpt lat="45.229950" lon="13.595484"><name>03 (6 m)</name><desc>score 0.94 | relief 1.00 | slope 0.86 | shelter 0.96</desc><sym>Fishing Hot Spot</sym></wpt><wpt lat="45.299120" lon="13.583985"><name>04 (5 m)</name><desc>score 0.91 | relief 1.00 | slope 0.78 | shelter 0.98</desc><sym>Fishing Hot Spot</sym></wpt><wpt lat="45.151797" lon="13.598039"><name>05 (5 m)</name><desc>score 0.85 | relief 1.00 | slope 0.60 | shelter 0.98</desc><sym>Fishing Hot Spot</sym></wpt><wpt lat="45.253306" lon="13.589095"><name>06 (8 m)</name><desc>score 0.83 | relief 1.00 | slope 0.55 | shelter 0.98</desc><sym>Fishing Hot Spot</sym></wpt><wpt lat="45.164373" lon="13.594206"><name>07 (6 m)</name><desc>score 0.82 | relief 1.00 | slope 0.56 | shelter 0.96</desc><sym>Fishing Hot Spot</sym></wpt><wpt lat="45.206594" lon="13.585262"><name>08 (10 m)</name><desc>score 0.78 | relief 1.00 | slope 0.41 | shelter 0.98</desc><sym>Fishing Hot Spot</sym></wpt><wpt lat="45.192221" lon="13.581429"><name>09 (5 m)</name><desc>score 0.76 | relief 1.00 | slope 0.37 | shelter 0.99</desc><sym>Fishing Hot Spot</sym></wpt><wpt lat="45.415002" lon="13.520101"><name>10 (3 m)</name><desc>score 0.70 | relief 1.00 | slope 0.89 | shelter 0.98</desc><sym>Fishing Hot Spot</sym></wpt><wpt lat="45.425782" lon="13.521379"><name>11 (3 m)</name><desc>score 0.69 | relief 1.00 | slope 0.97 | shelter 0.00</desc><sym>Fishing Hot Spot</sym></wpt><wpt lat="45.244323" lon="13.598039"><name>12 (4 m)</name><desc>score 0.69 | relief 1.00 | slope 0.96 | shelter 0.00</desc><sym>Fishing Hot Spot</sym></wpt></gpx>