<?xml version='1.0' encoding='utf-8'?>
<gpx version="1.1" creator="fish_finder" xmlns="http://www.topografix.com/GPX/1/1"><metadata><name>Novigrad, Istria 2026-08-07</name></metadata><wpt lat="45.414103" lon="13.521379"><name>01 (3 m)</name><desc>score 0.99 | relief 1.00 | slope 0.98 | shelter 0.98</desc><sym>Fishing Hot Spot</sym></wpt><wpt lat="45.183238" lon="13.598039"><name>02 (2 m)</name><desc>score 0.99 | relief 1.00 | slope 0.99 | shelter 0.97</desc><sym>Fishing Hot Spot</sym></wpt><wpt lat="45.165271" lon="13.598039"><name>03 (4 m)</name><desc>score 0.96 | relief 1.00 | slope 0.87 | shelter 0.98</desc><sym>Fishing Hot Spot</sym></wpt><wpt lat="45.252407" lon="13.591651"><name>04 (9 m)</name><desc>score 0.94 | relief 1.00 | slope 0.78 | shelter 0.97</desc><sym>Fishing Hot Spot</sym></wpt><wpt lat="45.313493" lon="13.573763"><name>05 (0 m)</name><desc>score 0.94 | relief 1.00 | slope 0.75 | shelter 0.98</desc><sym>Fishing Hot Spot</sym></wpt><wpt lat="45.326069" lon="13.546932"><name>06 (1 m)</name><desc>score 0.90 | relief 1.00 | slope 0.61 | shelter 0.98</desc><sym>Fishing Hot Spot</sym></wpt><wpt lat="45.299120" lon="13.580152"><name>07 (3 m)</name><desc>score 0.90 | relief 1.00 | slope 0.57 | shelter 0.99</desc><sym>Fishing Hot Spot</sym></wpt><wpt lat="45.282950" lon="13.591651"><name>08 (9 m)</name><desc>score 0.89 | relief 1.00 | slope 0.57 | shelter 0.98</desc><sym>Fishing Hot Spot</sym></wpt><wpt lat="45.191322" lon="13.583985"><name>09 (4 m)</name><desc>score 0.88 | relief 1.00 | slope 0.51 | shelter 0.98</desc><sym>Fishing Hot Spot</sym></wpt><wpt lat="45.229051" lon="13.587818"><name>10 (7 m)</name><desc>score 0.85 | relief 1.00 | slope 0.35 | shelter 0.99</desc><sym>Fishing Hot Spot</sym></wpt><wpt lat="45.163475" lon="13.586540"><name>11 (5 m)</name><desc>score 0.84 | relief 1.00 | slope 0.34 | shelter 0.99</desc><sym>Fishing Hot Spot</sym></wpt><wpt lat="45.474290" lon="13.507324"><name>12 (1 m)</name><desc>score 0.84 | relief 1.00 | slope 0.96 | shelter 0.57</desc><sym>Fishing Hot Spot</sym></wpt><wpt lat="45.276662" lon="13.587818"><name>13 (10 m)</name><desc>score 0.82 | relief 1.00 | slope 0.28 | shelter 0.98</desc><sym>Fishing Hot Spot</sym></wpt><wpt lat="45.206594" lon="13.582707"><name>14 (10 m)</name><desc>score 0.80 | relief 1.00 | slope 0.15 | shelter 0.99</desc><sym>Fishing Hot Spot</sym></wpt><wpt lat="45.422188" lon="13.518823"><name>15 (0 m)</name><desc>score 0.80 | relief 0.70 | slope 0.67 | shelter 0.99</desc><sym>Fishing Hot Spot</sym></wpt><wpt lat="45.263187" lon="13.576319"><name>16 (0 m)</name><desc>score 0.77 | relief 0.61 | slope 0.71 | shelter 0.99</desc><sym>Fishing Hot Spot</sym></wpt><wpt lat="45.150898" lon="13.595484"><name>17 (8 m)</name><desc>score 0.68 | relief 0.59 | slope 0.38 | shelter 0.99</desc><sym>Fishing Hot Spot</sym></wpt><wpt lat="45.436561" lon="13.517546"><name>18 (0 m)</name><desc>score 0.65 | relief 1.00 | slope 1.00 | shelter 0.00</desc><sym>Fishing Hot Spot</sym></wpt><wpt lat="45.354815" lon="13.550765"><name>19 (0 m)</name><desc>score 0.65 | relief 1.00 | slope 1.00 | shelter 0.00</desc><sym>Fishing Hot Spot</sym></wpt><wpt lat="45.244323" lon="13.598039"><name>20 (4 m)</name><desc>score 0.64 | relief 1.00 | slope 0.96 | shelter 0.00</desc><sym>Fishing Hot Spot</sym></wpt><wpt lat="45.230848" lon="13.596761"><name>21 (4 m)</name><desc>score 0.63 | relief 1.00 | slope 0.93 | shelter 0.00</desc><sym>Fishing Hot Spot</sym></wpt><wpt lat="45.496748" lon="13.497103"><name>22 (2 m)</name><desc>score 0.62 | relief 1.00 | slope 0.90 | shelter 0.00</desc><sym>Fishing Hot Spot</sym></wpt><wpt lat="45.483273" lon="13.461328"><name>23 (26 m)</name><desc>score 0.62 | relief 0.70 | slope 0.29 | shelter 0.75</desc><sym>Fishing Hot Spot</sym></wpt><wpt lat="45.453629" lon="13.514990"><name>24 (4 m)</name><desc>score 0.62 | relief 1.00 | slope 0.89 | shelter 0.00</desc><sym>Fishing Hot Spot</sym></wpt><wpt lat="45.399731" lon="13.534156"><name>25 (3 m)</name><desc>score 0.61 | relief 1.00 | slope 0.85 | shelter 0.00</desc><sym>Fishing Hot Spot</sym></wpt><wpt lat="45.393442" lon="13.535433"><name>26 (2 m)</name><desc>score 0.61 | relief 1.00 | slope 0.84 | shelter 0.00</desc><sym>Fishing Hot Spot</sym></wpt><wpt lat="45.218272" lon="13.591651"><name>27 (6 m)</name><desc>score 0.60 | relief 1.00 | slope 0.80 | shelter 0.00</desc><sym>Fishing Hot Spot</sym></wpt><wpt lat="45.379968" lon="13.539266"><name>28 (0 m)</name><desc>score 0.59 | relief 1.00 | slope 0.77 | shelter 0.00</desc><sym>Fishing Hot Spot</sym></wpt><wpt lat="45.370985" lon="13.541822"><name>29 (5 m)</name><desc>score 0.58 | relief 1.00 | slope 0.74 | shelter 0.00</desc><sym>Fishing Hot Spot</sym></wpt><wpt lat="45.341340" lon="13.543099"><name>30 (4 m)</name><desc>score 0.58 | relief 1.00 | slope 0.73 | shelter 0.00</desc><sym>Fishing Hot Spot</sym></wpt></gpx>