<?xml version='1.0' encoding='utf-8'?>
<gpx version="1.1" creator="fish_finder" xmlns="http://www.topografix.com/GPX/1/1"><metadata><name>sipa / common cuttlefish 2026-08-05</name></metadata><wpt lat="45.276662" lon="13.594206"><name>01 (8 m)</name><desc>score 0.95 | relief 1.00 | slope 0.90 | shelter 0.96</desc><sym>Fishing Hot Spot</sym></wpt><wpt lat="45.178746" lon="13.598039"><name>02 (5 m)</name><desc>score 0.95 | relief 1.00 | slope 0.91 | shelter 0.95</desc><sym>Fishing Hot Spot</sym></wpt><wpt lat="45.229950" lon="13.595484"><name>03 (6 m)</name><desc>score 0.93 | relief 1.00 | slope 0.86 | shelter 0.96</desc><sym>Fishing Hot Spot</sym></wpt><wpt lat="45.299120" lon="13.583985"><name>04 (5 m)</name><desc>score 0.91 | relief 1.00 | slope 0.78 | shelter 0.98</desc><sym>Fishing Hot Spot</sym></wpt><wpt lat="45.253306" lon="13.590373"><name>05 (8 m)</name><desc>score 0.90 | relief 1.00 | slope 0.75 | shelter 0.98</desc><sym>Fishing Hot Spot</sym></wpt><wpt lat="45.164373" lon="13.594206"><name>06 (6 m)</name><desc>score 0.82 | relief 1.00 | slope 0.56 | shelter 0.96</desc><sym>Fishing Hot Spot</sym></wpt><wpt lat="45.206594" lon="13.585262"><name>07 (10 m)</name><desc>score 0.77 | relief 1.00 | slope 0.41 | shelter 0.98</desc><sym>Fishing Hot Spot</sym></wpt><wpt lat="45.192221" lon="13.581429"><name>08 (5 m)</name><desc>score 0.76 | relief 1.00 | slope 0.37 | shelter 0.99</desc><sym>Fishing Hot Spot</sym></wpt><wpt lat="45.244323" lon="13.598039"><name>09 (4 m)</name><desc>score 0.69 | relief 1.00 | slope 0.96 | shelter 0.00</desc><sym>Fishing Hot Spot</sym></wpt><wpt lat="45.473392" lon="13.508602"><name>10 (4 m)</name><desc>score 0.67 | relief 1.00 | slope 0.92 | shelter 0.00</desc><sym>Fishing Hot Spot</sym></wpt><wpt lat="45.357510" lon="13.550765"><name>11 (5 m)</name><desc>score 0.67 | relief 1.00 | slope 0.92 | shelter 0.00</desc><sym>Fishing Hot Spot</sym></wpt><wpt lat="45.411409" lon="13.517546"><name>12 (7 m)</name><desc>score 0.67 | relief 1.00 | slope 0.91 | shelter 0.00</desc><sym>Fishing Hot Spot</sym></wpt><wpt lat="45.493155" lon="13.495825"><name>13 (6 m)</name><desc>score 0.64 | relief 1.00 | slope 0.83 | shelter 0.00</desc><sym>Fishing Hot Spot</sym></wpt><wpt lat="45.150898" lon="13.595484"><name>14 (8 m)</name><desc>score 0.63 | relief 0.59 | slope 0.38 | shelter 0.99</desc><sym>Fishing Hot Spot</sym></wpt><wpt lat="45.218272" lon="13.591651"><name>15 (6 m)</name><desc>score 0.62 | relief 1.00 | slope 0.80 | shelter 0.00</desc><sym>Fishing Hot Spot</sym></wpt><wpt lat="45.261391" lon="13.578874"><name>16 (5 m)</name><desc>score 0.62 | relief 1.00 | slope 0.80 | shelter 0.00</desc><sym>Fishing Hot Spot</sym></wpt><wpt lat="45.400629" lon="13.532878"><name>17 (6 m)</name><desc>score 0.61 | relief 1.00 | slope 0.76 | shelter 0.00</desc><sym>Fishing Hot Spot</sym></wpt><wpt lat="45.455426" lon="13.513713"><name>18 (5 m)</name><desc>score 0.61 | relief 1.00 | slope 0.75 | shelter 0.00</desc><sym>Fishing Hot Spot</sym></wpt><wpt lat="45.280255" lon="13.578874"><name>19 (8 m)</name><desc>score 0.60 | relief 1.00 | slope 0.74 | shelter 0.00</desc><sym>Fishing Hot Spot</sym></wpt><wpt lat="45.370985" lon="13.541822"><name>20 (5 m)</name><desc>score 0.60 | relief 1.00 | slope 0.74 | shelter 0.00</desc><sym>Fishing Hot Spot</sym></wpt><wpt lat="45.390747" lon="13.535433"><name>21 (4 m)</name><desc>score 0.60 | relief 1.00 | slope 0.73 | shelter 0.00</desc><sym>Fishing Hot Spot</sym></wpt><wpt lat="45.350323" lon="13.535433"><name>22 (9 m)</name><desc>score 0.58 | relief 1.00 | slope 0.70 | shelter 0.00</desc><sym>Fishing Hot Spot</sym></wpt><wpt lat="45.487765" lon="13.485604"><name>23 (13 m)</name><desc>score 0.58 | relief 1.00 | slope 0.69 | shelter 0.00</desc><sym>Fishing Hot Spot</sym></wpt><wpt lat="45.289238" lon="13.568653"><name>24 (10 m)</name><desc>score 0.56 | relief 0.98 | slope 0.64 | shelter 0.00</desc><sym>Fishing Hot Spot</sym></wpt><wpt lat="45.324272" lon="13.549488"><name>25 (6 m)</name><desc>score 0.56 | relief 1.00 | slope 0.62 | shelter 0.00</desc><sym>Fishing Hot Spot</sym></wpt><wpt lat="45.464409" lon="13.511157"><name>26 (4 m)</name><desc>score 0.54 | relief 1.00 | slope 0.59 | shelter 0.00</desc><sym>Fishing Hot Spot</sym></wpt><wpt lat="45.333255" lon="13.541822"><name>27 (6 m)</name><desc>score 0.54 | relief 1.00 | slope 0.59 | shelter 0.00</desc><sym>Fishing Hot Spot</sym></wpt><wpt lat="45.447341" lon="13.512435"><name>28 (5 m)</name><desc>score 0.54 | relief 1.00 | slope 0.58 | shelter 0.00</desc><sym>Fishing Hot Spot</sym></wpt><wpt lat="45.361103" lon="13.539266"><name>29 (9 m)</name><desc>score 0.54 | relief 1.00 | slope 0.57 | shelter 0.00</desc><sym>Fishing Hot Spot</sym></wpt><wpt lat="45.421290" lon="13.511157"><name>30 (11 m)</name><desc>score 0.54 | relief 1.00 | slope 0.57 | shelter 0.00</desc><sym>Fishing Hot Spot</sym></wpt></gpx>