<?xml version='1.0' encoding='utf-8'?>
<gpx version="1.1" creator="fish_finder" xmlns="http://www.topografix.com/GPX/1/1"><metadata><name>Brown meagre 2026-08-08</name></metadata><wpt lat="45.412307" lon="13.516268"><name>01 (11 m)</name><desc>score 0.95 | relief 1.00 | slope 0.84 | shelter 0.98</desc><sym>Fishing Hot Spot</sym></wpt><wpt lat="45.281153" lon="13.594206"><name>02 (11 m)</name><desc>score 0.89 | relief 1.00 | slope 0.60 | shelter 0.98</desc><sym>Fishing Hot Spot</sym></wpt><wpt lat="45.498545" lon="13.494548"><name>03 (10 m)</name><desc>score 0.88 | relief 1.00 | slope 0.58 | shelter 0.99</desc><sym>Fishing Hot Spot</sym></wpt><wpt lat="45.289238" lon="13.568653"><name>04 (10 m)</name><desc>score 0.88 | relief 0.98 | slope 0.64 | shelter 0.95</desc><sym>Fishing Hot Spot</sym></wpt><wpt lat="45.260492" lon="13.573763"><name>05 (10 m)</name><desc>score 0.88 | relief 1.00 | slope 0.58 | shelter 0.98</desc><sym>Fishing Hot Spot</sym></wpt><wpt lat="45.247018" lon="13.589095"><name>06 (11 m)</name><desc>score 0.87 | relief 1.00 | slope 0.58 | shelter 0.95</desc><sym>Fishing Hot Spot</sym></wpt><wpt lat="45.373679" lon="13.534156"><name>07 (10 m)</name><desc>score 0.86 | relief 1.00 | slope 0.55 | shelter 0.94</desc><sym>Fishing Hot Spot</sym></wpt><wpt lat="45.421290" lon="13.511157"><name>08 (11 m)</name><desc>score 0.85 | relief 1.00 | slope 0.57 | shelter 0.90</desc><sym>Fishing Hot Spot</sym></wpt><wpt lat="45.202102" lon="13.585262"><name>09 (10 m)</name><desc>score 0.85 | relief 1.00 | slope 0.48 | shelter 0.98</desc><sym>Fishing Hot Spot</sym></wpt><wpt lat="45.154492" lon="13.596761"><name>10 (11 m)</name><desc>score 0.85 | relief 1.00 | slope 0.53 | shelter 0.93</desc><sym>Fishing Hot Spot</sym></wpt><wpt lat="45.214678" lon="13.582707"><name>11 (12 m)</name><desc>score 0.85 | relief 1.00 | slope 0.50 | shelter 0.95</desc><sym>Fishing Hot Spot</sym></wpt><wpt lat="45.163475" lon="13.582707"><name>12 (14 m)</name><desc>score 0.85 | relief 1.00 | slope 0.53 | shelter 0.93</desc><sym>Fishing Hot Spot</sym></wpt></gpx>