<?xml version='1.0' encoding='utf-8'?>
<gpx version="1.1" creator="fish_finder" xmlns="http://www.topografix.com/GPX/1/1"><metadata><name>Brown meagre 2026-08-12</name></metadata><wpt lat="45.412307" lon="13.516268"><name>01 (11 m)</name><desc>score 0.95 | relief 1.00 | slope 0.84 | shelter 0.98</desc><sym>Fishing Hot Spot</sym></wpt><wpt lat="45.281153" lon="13.594206"><name>02 (11 m)</name><desc>score 0.89 | relief 1.00 | slope 0.60 | shelter 0.98</desc><sym>Fishing Hot Spot</sym></wpt><wpt lat="45.498545" lon="13.494548"><name>03 (10 m)</name><desc>score 0.88 | relief 1.00 | slope 0.58 | shelter 0.99</desc><sym>Fishing Hot Spot</sym></wpt><wpt lat="45.247018" lon="13.589095"><name>04 (11 m)</name><desc>score 0.87 | relief 1.00 | slope 0.58 | shelter 0.95</desc><sym>Fishing Hot Spot</sym></wpt><wpt lat="45.288340" lon="13.576319"><name>05 (12 m)</name><desc>score 0.85 | relief 1.00 | slope 0.49 | shelter 0.97</desc><sym>Fishing Hot Spot</sym></wpt><wpt lat="45.202102" lon="13.585262"><name>06 (10 m)</name><desc>score 0.85 | relief 1.00 | slope 0.48 | shelter 0.98</desc><sym>Fishing Hot Spot</sym></wpt><wpt lat="45.154492" lon="13.596761"><name>07 (11 m)</name><desc>score 0.85 | relief 1.00 | slope 0.53 | shelter 0.93</desc><sym>Fishing Hot Spot</sym></wpt><wpt lat="45.169763" lon="13.595484"><name>08 (10 m)</name><desc>score 0.83 | relief 1.00 | slope 0.40 | shelter 0.98</desc><sym>Fishing Hot Spot</sym></wpt><wpt lat="45.190424" lon="13.581429"><name>09 (11 m)</name><desc>score 0.83 | relief 1.00 | slope 0.40 | shelter 0.98</desc><sym>Fishing Hot Spot</sym></wpt><wpt lat="45.163475" lon="13.594206"><name>10 (12 m)</name><desc>score 0.83 | relief 1.00 | slope 0.40 | shelter 0.98</desc><sym>Fishing Hot Spot</sym></wpt><wpt lat="45.370086" lon="13.537989"><name>11 (10 m)</name><desc>score 0.83 | relief 1.00 | slope 0.39 | shelter 0.97</desc><sym>Fishing Hot Spot</sym></wpt><wpt lat="45.217373" lon="13.587818"><name>12 (13 m)</name><desc>score 0.83 | relief 1.00 | slope 0.39 | shelter 0.97</desc><sym>Fishing Hot Spot</sym></wpt></gpx>