<?xml version='1.0' encoding='utf-8'?>
<gpx version="1.1" creator="fish_finder" xmlns="http://www.topografix.com/GPX/1/1"><metadata><name>brancin / European seabass 2026-07-29</name></metadata><wpt lat="45.438358" lon="13.522656"><name>01 (4 m)</name><desc>score 0.94 | relief 1.00 | slope 0.85 | shelter 0.98</desc><sym>Fishing Hot Spot</sym></wpt><wpt lat="45.308103" lon="13.599317"><name>02 (4 m)</name><desc>score 0.92 | relief 1.00 | slope 0.83 | shelter 0.94</desc><sym>Fishing Hot Spot</sym></wpt><wpt lat="45.244323" lon="13.598039"><name>03 (4 m)</name><desc>score 0.87 | relief 1.00 | slope 0.67 | shelter 0.98</desc><sym>Fishing Hot Spot</sym></wpt><wpt lat="45.497646" lon="13.493270"><name>04 (10 m)</name><desc>score 0.86 | relief 1.00 | slope 0.65 | shelter 0.98</desc><sym>Fishing Hot Spot</sym></wpt><wpt lat="45.220967" lon="13.592928"><name>05 (4 m)</name><desc>score 0.85 | relief 1.00 | slope 0.64 | shelter 0.97</desc><sym>Fishing Hot Spot</sym></wpt><wpt lat="45.379968" lon="13.540544"><name>06 (5 m)</name><desc>score 0.84 | relief 1.00 | slope 0.59 | shelter 0.99</desc><sym>Fishing Hot Spot</sym></wpt><wpt lat="45.312594" lon="13.576319"><name>07 (5 m)</name><desc>score 0.81 | relief 1.00 | slope 0.51 | shelter 0.99</desc><sym>Fishing Hot Spot</sym></wpt><wpt lat="45.371883" lon="13.541822"><name>08 (5 m)</name><desc>score 0.74 | relief 1.00 | slope 0.33 | shelter 0.98</desc><sym>Fishing Hot Spot</sym></wpt><wpt lat="45.282950" lon="13.591651"><name>09 (9 m)</name><desc>score 0.73 | relief 1.00 | slope 0.31 | shelter 0.98</desc><sym>Fishing Hot Spot</sym></wpt><wpt lat="45.324272" lon="13.548210"><name>10 (8 m)</name><desc>score 0.73 | relief 1.00 | slope 0.31 | shelter 0.98</desc><sym>Fishing Hot Spot</sym></wpt><wpt lat="45.312594" lon="13.563542"><name>11 (6 m)</name><desc>score 0.72 | relief 1.00 | slope 0.27 | shelter 0.98</desc><sym>Fishing Hot Spot</sym></wpt><wpt lat="45.275764" lon="13.586540"><name>12 (4 m)</name><desc>score 0.71 | relief 1.00 | slope 0.26 | shelter 0.99</desc><sym>Fishing Hot Spot</sym></wpt><wpt lat="45.358408" lon="13.550765"><name>13 (5 m)</name><desc>score 0.71 | relief 1.00 | slope 0.27 | shelter 0.98</desc><sym>Fishing Hot Spot</sym></wpt><wpt lat="45.351222" lon="13.535433"><name>14 (8 m)</name><desc>score 0.71 | relief 1.00 | slope 0.75 | shelter 0.35</desc><sym>Fishing Hot Spot</sym></wpt><wpt lat="45.476985" lon="13.497103"><name>15 (8 m)</name><desc>score 0.71 | relief 1.00 | slope 0.42 | shelter 0.78</desc><sym>Fishing Hot Spot</sym></wpt><wpt lat="45.324272" lon="13.601872"><name>16 (4 m)</name><desc>score 0.70 | relief 1.00 | slope 0.24 | shelter 0.98</desc><sym>Fishing Hot Spot</sym></wpt><wpt lat="45.433866" lon="13.511157"><name>17 (7 m)</name><desc>score 0.69 | relief 1.00 | slope 0.61 | shelter 0.47</desc><sym>Fishing Hot Spot</sym></wpt><wpt lat="45.418595" lon="13.512435"><name>18 (10 m)</name><desc>score 0.69 | relief 1.00 | slope 0.61 | shelter 0.46</desc><sym>Fishing Hot Spot</sym></wpt><wpt lat="45.274865" lon="13.572486"><name>19 (7 m)</name><desc>score 0.67 | relief 1.00 | slope 0.78 | shelter 0.17</desc><sym>Fishing Hot Spot</sym></wpt><wpt lat="45.281153" lon="13.576319"><name>20 (7 m)</name><desc>score 0.67 | relief 0.99 | slope 0.79 | shelter 0.16</desc><sym>Fishing Hot Spot</sym></wpt><wpt lat="45.426680" lon="13.516268"><name>21 (7 m)</name><desc>score 0.66 | relief 1.00 | slope 0.56 | shelter 0.45</desc><sym>Fishing Hot Spot</sym></wpt><wpt lat="45.383561" lon="13.530323"><name>22 (9 m)</name><desc>score 0.66 | relief 1.00 | slope 0.60 | shelter 0.38</desc><sym>Fishing Hot Spot</sym></wpt><wpt lat="45.318883" lon="13.559709"><name>23 (5 m)</name><desc>score 0.66 | relief 1.00 | slope 0.12 | shelter 0.98</desc><sym>Fishing Hot Spot</sym></wpt><wpt lat="45.395239" lon="13.529045"><name>24 (7 m)</name><desc>score 0.65 | relief 1.00 | slope 0.58 | shelter 0.39</desc><sym>Fishing Hot Spot</sym></wpt><wpt lat="45.362001" lon="13.539266"><name>25 (9 m)</name><desc>score 0.64 | relief 1.00 | slope 0.58 | shelter 0.33</desc><sym>Fishing Hot Spot</sym></wpt><wpt lat="45.288340" lon="13.569930"><name>26 (7 m)</name><desc>score 0.63 | relief 1.00 | slope 0.67 | shelter 0.19</desc><sym>Fishing Hot Spot</sym></wpt><wpt lat="45.336849" lon="13.537989"><name>27 (8 m)</name><desc>score 0.62 | relief 1.00 | slope 0.53 | shelter 0.34</desc><sym>Fishing Hot Spot</sym></wpt><wpt lat="45.312594" lon="13.543099"><name>28 (10 m)</name><desc>score 0.54 | relief 1.00 | slope 0.39 | shelter 0.32</desc><sym>Fishing Hot Spot</sym></wpt><wpt lat="45.318883" lon="13.536711"><name>29 (12 m)</name><desc>score 0.52 | relief 1.00 | slope 0.55 | shelter 0.35</desc><sym>Fishing Hot Spot</sym></wpt><wpt lat="45.345832" lon="13.525212"><name>30 (14 m)</name><desc>score 0.35 | relief 1.00 | slope 0.15 | shelter 0.40</desc><sym>Fishing Hot Spot</sym></wpt></gpx>