<?xml version='1.0' encoding='utf-8'?>
<gpx version="1.1" creator="fish_finder" xmlns="http://www.topografix.com/GPX/1/1"><metadata><name>White seabream 2026-08-09</name></metadata><wpt lat="45.276662" lon="13.594206"><name>01 (8 m)</name><desc>score 0.96 | relief 1.00 | slope 0.90 | shelter 0.96</desc><sym>Fishing Hot Spot</sym></wpt><wpt lat="45.299120" lon="13.583985"><name>02 (5 m)</name><desc>score 0.92 | relief 1.00 | slope 0.78 | shelter 0.98</desc><sym>Fishing Hot Spot</sym></wpt><wpt lat="45.253306" lon="13.590373"><name>03 (8 m)</name><desc>score 0.91 | relief 1.00 | slope 0.75 | shelter 0.98</desc><sym>Fishing Hot Spot</sym></wpt><wpt lat="45.192221" lon="13.582707"><name>04 (6 m)</name><desc>score 0.85 | relief 1.00 | slope 0.56 | shelter 0.99</desc><sym>Fishing Hot Spot</sym></wpt><wpt lat="45.178746" lon="13.596761"><name>05 (5 m)</name><desc>score 0.83 | relief 1.00 | slope 0.53 | shelter 0.95</desc><sym>Fishing Hot Spot</sym></wpt><wpt lat="45.163475" lon="13.595484"><name>06 (10 m)</name><desc>score 0.82 | relief 1.00 | slope 0.49 | shelter 0.96</desc><sym>Fishing Hot Spot</sym></wpt><wpt lat="45.497646" lon="13.495825"><name>07 (5 m)</name><desc>score 0.81 | relief 1.00 | slope 0.75 | shelter 0.63</desc><sym>Fishing Hot Spot</sym></wpt><wpt lat="45.206594" lon="13.585262"><name>08 (10 m)</name><desc>score 0.80 | relief 1.00 | slope 0.41 | shelter 0.98</desc><sym>Fishing Hot Spot</sym></wpt><wpt lat="45.229051" lon="13.589095"><name>09 (6 m)</name><desc>score 0.80 | relief 1.00 | slope 0.40 | shelter 0.99</desc><sym>Fishing Hot Spot</sym></wpt><wpt lat="45.244323" lon="13.598039"><name>10 (4 m)</name><desc>score 0.69 | relief 1.00 | slope 0.96 | shelter 0.00</desc><sym>Fishing Hot Spot</sym></wpt><wpt lat="45.473392" lon="13.508602"><name>11 (4 m)</name><desc>score 0.68 | relief 1.00 | slope 0.92 | shelter 0.00</desc><sym>Fishing Hot Spot</sym></wpt><wpt lat="45.357510" lon="13.550765"><name>12 (5 m)</name><desc>score 0.67 | relief 1.00 | slope 0.92 | shelter 0.00</desc><sym>Fishing Hot Spot</sym></wpt></gpx>