<?xml version='1.0' encoding='utf-8'?>
<gpx version="1.1" creator="fish_finder" xmlns="http://www.topografix.com/GPX/1/1"><metadata><name>Common octopus 2026-08-12</name></metadata><wpt lat="45.276662" lon="13.594206"><name>01 (8 m)</name><desc>score 0.96 | relief 1.00 | slope 0.90 | shelter 0.96</desc><sym>Fishing Hot Spot</sym></wpt><wpt lat="45.229051" lon="13.594206"><name>02 (3 m)</name><desc>score 0.94 | relief 1.00 | slope 0.81 | shelter 0.97</desc><sym>Fishing Hot Spot</sym></wpt><wpt lat="45.299120" lon="13.583985"><name>03 (5 m)</name><desc>score 0.94 | relief 1.00 | slope 0.78 | shelter 0.98</desc><sym>Fishing Hot Spot</sym></wpt><wpt lat="45.253306" lon="13.590373"><name>04 (8 m)</name><desc>score 0.93 | relief 1.00 | slope 0.75 | shelter 0.98</desc><sym>Fishing Hot Spot</sym></wpt><wpt lat="45.178746" lon="13.596761"><name>05 (5 m)</name><desc>score 0.87 | relief 1.00 | slope 0.53 | shelter 0.95</desc><sym>Fishing Hot Spot</sym></wpt><wpt lat="45.494951" lon="13.497103"><name>06 (3 m)</name><desc>score 0.86 | relief 1.00 | slope 0.90 | shelter 0.62</desc><sym>Fishing Hot Spot</sym></wpt><wpt lat="45.162576" lon="13.598039"><name>07 (6 m)</name><desc>score 0.85 | relief 1.00 | slope 0.47 | shelter 0.95</desc><sym>Fishing Hot Spot</sym></wpt><wpt lat="45.206594" lon="13.585262"><name>08 (10 m)</name><desc>score 0.85 | relief 1.00 | slope 0.41 | shelter 0.98</desc><sym>Fishing Hot Spot</sym></wpt><wpt lat="45.192221" lon="13.581429"><name>09 (5 m)</name><desc>score 0.84 | relief 1.00 | slope 0.37 | shelter 0.99</desc><sym>Fishing Hot Spot</sym></wpt><wpt lat="45.415002" lon="13.520101"><name>10 (3 m)</name><desc>score 0.71 | relief 1.00 | slope 0.89 | shelter 0.98</desc><sym>Fishing Hot Spot</sym></wpt><wpt lat="45.425782" lon="13.521379"><name>11 (3 m)</name><desc>score 0.69 | relief 1.00 | slope 0.97 | shelter 0.00</desc><sym>Fishing Hot Spot</sym></wpt><wpt lat="45.244323" lon="13.598039"><name>12 (4 m)</name><desc>score 0.69 | relief 1.00 | slope 0.96 | shelter 0.00</desc><sym>Fishing Hot Spot</sym></wpt></gpx>