<?xml version='1.0' encoding='utf-8'?>
<gpx version="1.1" creator="fish_finder" xmlns="http://www.topografix.com/GPX/1/1"><metadata><name>Common octopus 2026-08-07</name></metadata><wpt lat="45.414103" lon="13.521379"><name>01 (3 m)</name><desc>score 0.99 | relief 1.00 | slope 0.98 | shelter 0.98</desc><sym>Fishing Hot Spot</sym></wpt><wpt lat="45.164373" lon="13.599317"><name>02 (5 m)</name><desc>score 0.98 | relief 1.00 | slope 0.95 | shelter 0.98</desc><sym>Fishing Hot Spot</sym></wpt><wpt lat="45.252407" lon="13.591651"><name>03 (9 m)</name><desc>score 0.94 | relief 1.00 | slope 0.78 | shelter 0.98</desc><sym>Fishing Hot Spot</sym></wpt><wpt lat="45.184136" lon="13.595484"><name>04 (5 m)</name><desc>score 0.93 | relief 1.00 | slope 0.71 | shelter 0.99</desc><sym>Fishing Hot Spot</sym></wpt><wpt lat="45.325171" lon="13.548210"><name>05 (4 m)</name><desc>score 0.89 | relief 1.00 | slope 0.60 | shelter 0.98</desc><sym>Fishing Hot Spot</sym></wpt><wpt lat="45.282950" lon="13.591651"><name>06 (9 m)</name><desc>score 0.89 | relief 1.00 | slope 0.57 | shelter 0.99</desc><sym>Fishing Hot Spot</sym></wpt><wpt lat="45.313493" lon="13.569930"><name>07 (5 m)</name><desc>score 0.89 | relief 1.00 | slope 0.57 | shelter 0.98</desc><sym>Fishing Hot Spot</sym></wpt><wpt lat="45.192221" lon="13.582707"><name>08 (6 m)</name><desc>score 0.89 | relief 1.00 | slope 0.56 | shelter 0.99</desc><sym>Fishing Hot Spot</sym></wpt><wpt lat="45.477884" lon="13.500936"><name>09 (3 m)</name><desc>score 0.88 | relief 1.00 | slope 0.80 | shelter 0.99</desc><sym>Fishing Hot Spot</sym></wpt><wpt lat="45.305408" lon="13.589095"><name>10 (5 m)</name><desc>score 0.81 | relief 1.00 | slope 0.41 | shelter 0.87</desc><sym>Fishing Hot Spot</sym></wpt><wpt lat="45.205695" lon="13.582707"><name>11 (11 m)</name><desc>score 0.81 | relief 1.00 | slope 0.24 | shelter 0.99</desc><sym>Fishing Hot Spot</sym></wpt><wpt lat="45.358408" lon="13.550765"><name>12 (5 m)</name><desc>score 0.77 | relief 0.53 | slope 0.92 | shelter 0.99</desc><sym>Fishing Hot Spot</sym></wpt></gpx>