<?xml version='1.0' encoding='utf-8'?>
<gpx version="1.1" creator="fish_finder" xmlns="http://www.topografix.com/GPX/1/1"><metadata><name>Novigrad, Istria 2026-08-11</name></metadata><wpt lat="45.183238" lon="13.598039"><name>01 (2 m)</name><desc>score 1.00 | relief 1.00 | slope 0.99 | shelter 0.99</desc><sym>Fishing Hot Spot</sym></wpt><wpt lat="45.438358" lon="13.516268"><name>02 (0 m)</name><desc>score 0.99 | relief 1.00 | slope 1.00 | shelter 0.98</desc><sym>Fishing Hot Spot</sym></wpt><wpt lat="45.413205" lon="13.522656"><name>03 (3 m)</name><desc>score 0.99 | relief 1.00 | slope 1.00 | shelter 0.98</desc><sym>Fishing Hot Spot</sym></wpt><wpt lat="45.474290" lon="13.507324"><name>04 (1 m)</name><desc>score 0.99 | relief 1.00 | slope 0.96 | shelter 0.99</desc><sym>Fishing Hot Spot</sym></wpt><wpt lat="45.244323" lon="13.598039"><name>05 (4 m)</name><desc>score 0.99 | relief 1.00 | slope 0.96 | shelter 0.98</desc><sym>Fishing Hot Spot</sym></wpt><wpt lat="45.164373" lon="13.599317"><name>06 (5 m)</name><desc>score 0.98 | relief 1.00 | slope 0.95 | shelter 0.98</desc><sym>Fishing Hot Spot</sym></wpt><wpt lat="45.357510" lon="13.550765"><name>07 (5 m)</name><desc>score 0.97 | relief 1.00 | slope 0.92 | shelter 0.98</desc><sym>Fishing Hot Spot</sym></wpt><wpt lat="45.454527" lon="13.514990"><name>08 (4 m)</name><desc>score 0.96 | relief 1.00 | slope 0.88 | shelter 0.97</desc><sym>Fishing Hot Spot</sym></wpt><wpt lat="45.277560" lon="13.595484"><name>09 (8 m)</name><desc>score 0.96 | relief 1.00 | slope 0.90 | shelter 0.95</desc><sym>Fishing Hot Spot</sym></wpt><wpt lat="45.261391" lon="13.578874"><name>10 (5 m)</name><desc>score 0.94 | relief 1.00 | slope 0.80 | shelter 0.98</desc><sym>Fishing Hot Spot</sym></wpt><wpt lat="45.218272" lon="13.591651"><name>11 (6 m)</name><desc>score 0.94 | relief 1.00 | slope 0.80 | shelter 0.97</desc><sym>Fishing Hot Spot</sym></wpt><wpt lat="45.252407" lon="13.591651"><name>12 (9 m)</name><desc>score 0.94 | relief 1.00 | slope 0.78 | shelter 0.98</desc><sym>Fishing Hot Spot</sym></wpt><wpt lat="45.313493" lon="13.573763"><name>13 (0 m)</name><desc>score 0.94 | relief 1.00 | slope 0.75 | shelter 0.99</desc><sym>Fishing Hot Spot</sym></wpt><wpt lat="45.379968" lon="13.539266"><name>14 (0 m)</name><desc>score 0.93 | relief 1.00 | slope 0.77 | shelter 0.96</desc><sym>Fishing Hot Spot</sym></wpt><wpt lat="45.323374" lon="13.550765"><name>15 (3 m)</name><desc>score 0.93 | relief 1.00 | slope 0.74 | shelter 0.97</desc><sym>Fishing Hot Spot</sym></wpt><wpt lat="45.299120" lon="13.583985"><name>16 (5 m)</name><desc>score 0.91 | relief 1.00 | slope 0.78 | shelter 0.89</desc><sym>Fishing Hot Spot</sym></wpt><wpt lat="45.152695" lon="13.599317"><name>17 (0 m)</name><desc>score 0.89 | relief 1.00 | slope 0.68 | shelter 0.92</desc><sym>Fishing Hot Spot</sym></wpt><wpt lat="45.192221" lon="13.582707"><name>18 (6 m)</name><desc>score 0.89 | relief 1.00 | slope 0.56 | shelter 0.99</desc><sym>Fishing Hot Spot</sym></wpt><wpt lat="45.426680" lon="13.521379"><name>19 (0 m)</name><desc>score 0.87 | relief 0.70 | slope 0.99 | shelter 0.99</desc><sym>Fishing Hot Spot</sym></wpt><wpt lat="45.395239" lon="13.534156"><name>20 (2 m)</name><desc>score 0.87 | relief 0.77 | slope 0.86 | shelter 0.99</desc><sym>Fishing Hot Spot</sym></wpt><wpt lat="45.203899" lon="13.585262"><name>21 (9 m)</name><desc>score 0.86 | relief 1.00 | slope 0.45 | shelter 0.98</desc><sym>Fishing Hot Spot</sym></wpt><wpt lat="45.372781" lon="13.540544"><name>22 (2 m)</name><desc>score 0.76 | relief 0.58 | slope 0.74 | shelter 0.99</desc><sym>Fishing Hot Spot</sym></wpt><wpt lat="45.498545" lon="13.495825"><name>23 (8 m)</name><desc>score 0.67 | relief 0.39 | slope 0.68 | shelter 0.99</desc><sym>Fishing Hot Spot</sym></wpt><wpt lat="45.230848" lon="13.596761"><name>24 (4 m)</name><desc>score 0.63 | relief 1.00 | slope 0.93 | shelter 0.00</desc><sym>Fishing Hot Spot</sym></wpt><wpt lat="45.452731" lon="13.458773"><name>25 (25 m)</name><desc>score 0.61 | relief 0.80 | slope 0.18 | shelter 0.66</desc><sym>Fishing Hot Spot</sym></wpt><wpt lat="45.341340" lon="13.543099"><name>26 (4 m)</name><desc>score 0.58 | relief 1.00 | slope 0.73 | shelter 0.00</desc><sym>Fishing Hot Spot</sym></wpt><wpt lat="45.350323" lon="13.535433"><name>27 (9 m)</name><desc>score 0.57 | relief 1.00 | slope 0.70 | shelter 0.00</desc><sym>Fishing Hot Spot</sym></wpt><wpt lat="45.487765" lon="13.485604"><name>28 (13 m)</name><desc>score 0.57 | relief 1.00 | slope 0.69 | shelter 0.00</desc><sym>Fishing Hot Spot</sym></wpt><wpt lat="45.308103" lon="13.539266"><name>29 (16 m)</name><desc>score 0.54 | relief 1.00 | slope 0.54 | shelter 0.00</desc><sym>Fishing Hot Spot</sym></wpt><wpt lat="45.163475" lon="13.582707"><name>30 (14 m)</name><desc>score 0.54 | relief 1.00 | slope 0.53 | shelter 0.00</desc><sym>Fishing Hot Spot</sym></wpt></gpx>