<?xml version='1.0' encoding='utf-8'?>
<gpx version="1.1" creator="fish_finder" xmlns="http://www.topografix.com/GPX/1/1"><metadata><name>Gilthead seabream 2026-08-11</name></metadata><wpt lat="45.414103" lon="13.521379"><name>01 (3 m)</name><desc>score 0.99 | relief 1.00 | slope 0.98 | shelter 0.98</desc><sym>Fishing Hot Spot</sym></wpt><wpt lat="45.179644" lon="13.599317"><name>02 (4 m)</name><desc>score 0.99 | relief 1.00 | slope 1.00 | shelter 0.95</desc><sym>Fishing Hot Spot</sym></wpt><wpt lat="45.244323" lon="13.598039"><name>03 (4 m)</name><desc>score 0.98 | relief 1.00 | slope 0.96 | shelter 0.98</desc><sym>Fishing Hot Spot</sym></wpt><wpt lat="45.164373" lon="13.599317"><name>04 (5 m)</name><desc>score 0.97 | relief 1.00 | slope 0.95 | shelter 0.98</desc><sym>Fishing Hot Spot</sym></wpt><wpt lat="45.473392" lon="13.508602"><name>05 (4 m)</name><desc>score 0.97 | relief 1.00 | slope 0.92 | shelter 0.98</desc><sym>Fishing Hot Spot</sym></wpt><wpt lat="45.357510" lon="13.550765"><name>06 (5 m)</name><desc>score 0.96 | relief 1.00 | slope 0.92 | shelter 0.98</desc><sym>Fishing Hot Spot</sym></wpt><wpt lat="45.454527" lon="13.514990"><name>07 (4 m)</name><desc>score 0.95 | relief 1.00 | slope 0.88 | shelter 0.97</desc><sym>Fishing Hot Spot</sym></wpt><wpt lat="45.218272" lon="13.591651"><name>08 (6 m)</name><desc>score 0.92 | relief 1.00 | slope 0.80 | shelter 0.97</desc><sym>Fishing Hot Spot</sym></wpt><wpt lat="45.261391" lon="13.578874"><name>09 (5 m)</name><desc>score 0.92 | relief 1.00 | slope 0.80 | shelter 0.98</desc><sym>Fishing Hot Spot</sym></wpt><wpt lat="45.252407" lon="13.591651"><name>10 (9 m)</name><desc>score 0.91 | relief 1.00 | slope 0.78 | shelter 0.98</desc><sym>Fishing Hot Spot</sym></wpt><wpt lat="45.278458" lon="13.595484"><name>11 (6 m)</name><desc>score 0.90 | relief 1.00 | slope 0.77 | shelter 0.95</desc><sym>Fishing Hot Spot</sym></wpt><wpt lat="45.299120" lon="13.583985"><name>12 (5 m)</name><desc>score 0.88 | relief 1.00 | slope 0.78 | shelter 0.88</desc><sym>Fishing Hot Spot</sym></wpt></gpx>