<?xml version='1.0' encoding='utf-8'?>
<gpx version="1.1" creator="fish_finder" xmlns="http://www.topografix.com/GPX/1/1"><metadata><name>zubatac / common dentex 2026-07-29</name></metadata><wpt lat="45.307204" lon="13.540544"><name>01 (16 m)</name><desc>score 0.79 | relief 1.00 | slope 0.54 | shelter 0.89</desc><sym>Fishing Hot Spot</sym></wpt><wpt lat="45.492257" lon="13.486882"><name>02 (14 m)</name><desc>score 0.76 | relief 0.82 | slope 0.69 | shelter 0.95</desc><sym>Fishing Hot Spot</sym></wpt><wpt lat="45.319781" lon="13.535433"><name>03 (14 m)</name><desc>score 0.69 | relief 0.78 | slope 0.61 | shelter 0.94</desc><sym>Fishing Hot Spot</sym></wpt><wpt lat="45.211085" lon="13.580152"><name>04 (14 m)</name><desc>score 0.68 | relief 0.74 | slope 0.71 | shelter 0.93</desc><sym>Fishing Hot Spot</sym></wpt><wpt lat="45.221865" lon="13.578874"><name>05 (15 m)</name><desc>score 0.66 | relief 0.88 | slope 0.39 | shelter 0.81</desc><sym>Fishing Hot Spot</sym></wpt><wpt lat="45.476985" lon="13.484326"><name>06 (15 m)</name><desc>score 0.65 | relief 0.89 | slope 0.33 | shelter 0.86</desc><sym>Fishing Hot Spot</sym></wpt><wpt lat="45.273069" lon="13.560987"><name>07 (13 m)</name><desc>score 0.64 | relief 0.95 | slope 0.55 | shelter 0.86</desc><sym>Fishing Hot Spot</sym></wpt><wpt lat="45.327866" lon="13.530323"><name>08 (14 m)</name><desc>score 0.62 | relief 0.83 | slope 0.45 | shelter 0.86</desc><sym>Fishing Hot Spot</sym></wpt><wpt lat="45.375476" lon="13.525212"><name>09 (15 m)</name><desc>score 0.60 | relief 0.69 | slope 0.32 | shelter 0.88</desc><sym>Fishing Hot Spot</sym></wpt><wpt lat="45.355713" lon="13.529045"><name>10 (14 m)</name><desc>score 0.60 | relief 0.75 | slope 0.52 | shelter 0.85</desc><sym>Fishing Hot Spot</sym></wpt><wpt lat="45.346730" lon="13.525212"><name>11 (15 m)</name><desc>score 0.60 | relief 0.88 | slope 0.22 | shelter 0.80</desc><sym>Fishing Hot Spot</sym></wpt><wpt lat="45.384459" lon="13.523934"><name>12 (14 m)</name><desc>score 0.58 | relief 0.68 | slope 0.50 | shelter 0.89</desc><sym>Fishing Hot Spot</sym></wpt><wpt lat="45.235340" lon="13.580152"><name>13 (14 m)</name><desc>score 0.58 | relief 0.72 | slope 0.33 | shelter 0.89</desc><sym>Fishing Hot Spot</sym></wpt><wpt lat="45.338645" lon="13.523934"><name>14 (15 m)</name><desc>score 0.57 | relief 1.00 | slope 0.11 | shelter 0.79</desc><sym>Fishing Hot Spot</sym></wpt><wpt lat="45.287442" lon="13.562264"><name>15 (15 m)</name><desc>score 0.53 | relief 0.50 | slope 0.31 | shelter 0.84</desc><sym>Fishing Hot Spot</sym></wpt><wpt lat="45.494053" lon="13.470272"><name>16 (20 m)</name><desc>score 0.53 | relief 0.68 | slope 0.07 | shelter 0.96</desc><sym>Fishing Hot Spot</sym></wpt><wpt lat="45.428476" lon="13.503491"><name>17 (15 m)</name><desc>score 0.51 | relief 0.56 | slope 0.26 | shelter 0.83</desc><sym>Fishing Hot Spot</sym></wpt><wpt lat="45.418595" lon="13.511157"><name>18 (13 m)</name><desc>score 0.51 | relief 0.39 | slope 0.59 | shelter 0.89</desc><sym>Fishing Hot Spot</sym></wpt><wpt lat="45.282052" lon="13.577596"><name>19 (14 m)</name><desc>score 0.50 | relief 0.00 | slope 0.65 | shelter 0.95</desc><sym>Fishing Hot Spot</sym></wpt><wpt lat="45.269475" lon="13.575041"><name>20 (15 m)</name><desc>score 0.50 | relief 0.00 | slope 0.65 | shelter 0.89</desc><sym>Fishing Hot Spot</sym></wpt><wpt lat="45.281153" lon="13.594206"><name>21 (11 m)</name><desc>score 0.49 | relief 1.00 | slope 0.57 | shelter 0.99</desc><sym>Fishing Hot Spot</sym></wpt><wpt lat="45.289238" lon="13.576319"><name>22 (15 m)</name><desc>score 0.48 | relief 0.00 | slope 0.48 | shelter 0.98</desc><sym>Fishing Hot Spot</sym></wpt><wpt lat="45.300916" lon="13.560987"><name>23 (16 m)</name><desc>score 0.46 | relief 0.00 | slope 0.47 | shelter 0.93</desc><sym>Fishing Hot Spot</sym></wpt><wpt lat="45.245221" lon="13.591651"><name>24 (12 m)</name><desc>score 0.43 | relief 0.43 | slope 0.62 | shelter 0.98</desc><sym>Fishing Hot Spot</sym></wpt><wpt lat="45.440155" lon="13.499658"><name>25 (11 m)</name><desc>score 0.42 | relief 0.89 | slope 0.48 | shelter 0.83</desc><sym>Fishing Hot Spot</sym></wpt><wpt lat="45.344934" lon="13.536711"><name>26 (12 m)</name><desc>score 0.41 | relief 0.33 | slope 0.55 | shelter 0.96</desc><sym>Fishing Hot Spot</sym></wpt></gpx>