<?xml version='1.0' encoding='utf-8'?>
<gpx version="1.1" creator="fish_finder" xmlns="http://www.topografix.com/GPX/1/1"><metadata><name>European seabass 2026-08-07</name></metadata><wpt lat="45.414103" lon="13.521379"><name>01 (3 m)</name><desc>score 0.99 | relief 1.00 | slope 0.98 | shelter 0.98</desc><sym>Fishing Hot Spot</sym></wpt><wpt lat="45.165271" lon="13.598039"><name>02 (4 m)</name><desc>score 0.95 | relief 1.00 | slope 0.87 | shelter 0.98</desc><sym>Fishing Hot Spot</sym></wpt><wpt lat="45.252407" lon="13.591651"><name>03 (9 m)</name><desc>score 0.91 | relief 1.00 | slope 0.78 | shelter 0.97</desc><sym>Fishing Hot Spot</sym></wpt><wpt lat="45.184136" lon="13.595484"><name>04 (5 m)</name><desc>score 0.89 | relief 1.00 | slope 0.71 | shelter 0.98</desc><sym>Fishing Hot Spot</sym></wpt><wpt lat="45.473392" lon="13.508602"><name>05 (4 m)</name><desc>score 0.84 | relief 1.00 | slope 0.92 | shelter 0.56</desc><sym>Fishing Hot Spot</sym></wpt><wpt lat="45.299120" lon="13.580152"><name>06 (3 m)</name><desc>score 0.83 | relief 1.00 | slope 0.57 | shelter 0.99</desc><sym>Fishing Hot Spot</sym></wpt><wpt lat="45.313493" lon="13.569930"><name>07 (5 m)</name><desc>score 0.83 | relief 1.00 | slope 0.57 | shelter 0.98</desc><sym>Fishing Hot Spot</sym></wpt><wpt lat="45.282950" lon="13.591651"><name>08 (9 m)</name><desc>score 0.83 | relief 1.00 | slope 0.57 | shelter 0.98</desc><sym>Fishing Hot Spot</sym></wpt><wpt lat="45.275764" lon="13.592928"><name>09 (2 m)</name><desc>score 0.81 | relief 0.57 | slope 0.87 | shelter 0.99</desc><sym>Fishing Hot Spot</sym></wpt><wpt lat="45.191322" lon="13.583985"><name>10 (4 m)</name><desc>score 0.81 | relief 1.00 | slope 0.51 | shelter 0.98</desc><sym>Fishing Hot Spot</sym></wpt><wpt lat="45.262289" lon="13.578874"><name>11 (6 m)</name><desc>score 0.76 | relief 0.51 | slope 0.79 | shelter 0.98</desc><sym>Fishing Hot Spot</sym></wpt><wpt lat="45.229051" lon="13.587818"><name>12 (7 m)</name><desc>score 0.75 | relief 1.00 | slope 0.35 | shelter 0.99</desc><sym>Fishing Hot Spot</sym></wpt></gpx>