<?xml version='1.0' encoding='utf-8'?>
<gpx version="1.1" creator="fish_finder" xmlns="http://www.topografix.com/GPX/1/1"><metadata><name>hobotnica / common octopus 2026-07-30</name></metadata><wpt lat="45.244323" lon="13.598039"><name>01 (4 m)</name><desc>score 0.98 | relief 1.00 | slope 0.93 | shelter 0.98</desc><sym>Fishing Hot Spot</sym></wpt><wpt lat="45.309899" lon="13.600594"><name>02 (4 m)</name><desc>score 0.95 | relief 1.00 | slope 0.87 | shelter 0.95</desc><sym>Fishing Hot Spot</sym></wpt><wpt lat="45.497646" lon="13.495825"><name>03 (5 m)</name><desc>score 0.94 | relief 1.00 | slope 0.81 | shelter 0.98</desc><sym>Fishing Hot Spot</sym></wpt><wpt lat="45.282950" lon="13.591651"><name>04 (9 m)</name><desc>score 0.91 | relief 1.00 | slope 0.66 | shelter 0.98</desc><sym>Fishing Hot Spot</sym></wpt><wpt lat="45.220967" lon="13.592928"><name>05 (4 m)</name><desc>score 0.91 | relief 1.00 | slope 0.68 | shelter 0.97</desc><sym>Fishing Hot Spot</sym></wpt><wpt lat="45.379968" lon="13.540544"><name>06 (5 m)</name><desc>score 0.90 | relief 1.00 | slope 0.62 | shelter 0.99</desc><sym>Fishing Hot Spot</sym></wpt><wpt lat="45.300916" lon="13.586540"><name>07 (7 m)</name><desc>score 0.89 | relief 1.00 | slope 0.69 | shelter 0.87</desc><sym>Fishing Hot Spot</sym></wpt><wpt lat="45.358408" lon="13.550765"><name>08 (5 m)</name><desc>score 0.88 | relief 1.00 | slope 0.55 | shelter 0.98</desc><sym>Fishing Hot Spot</sym></wpt><wpt lat="45.324272" lon="13.549488"><name>09 (6 m)</name><desc>score 0.88 | relief 1.00 | slope 0.55 | shelter 0.98</desc><sym>Fishing Hot Spot</sym></wpt><wpt lat="45.321577" lon="13.558431"><name>10 (4 m)</name><desc>score 0.87 | relief 1.00 | slope 0.50 | shelter 0.99</desc><sym>Fishing Hot Spot</sym></wpt><wpt lat="45.325171" lon="13.601872"><name>11 (4 m)</name><desc>score 0.84 | relief 1.00 | slope 0.56 | shelter 0.99</desc><sym>Fishing Hot Spot</sym></wpt><wpt lat="45.371883" lon="13.541822"><name>12 (5 m)</name><desc>score 0.84 | relief 1.00 | slope 0.38 | shelter 0.98</desc><sym>Fishing Hot Spot</sym></wpt><wpt lat="45.313493" lon="13.569930"><name>13 (5 m)</name><desc>score 0.84 | relief 1.00 | slope 0.37 | shelter 0.98</desc><sym>Fishing Hot Spot</sym></wpt><wpt lat="45.448239" lon="13.513713"><name>14 (4 m)</name><desc>score 0.77 | relief 1.00 | slope 0.68 | shelter 0.51</desc><sym>Fishing Hot Spot</sym></wpt><wpt lat="45.351222" lon="13.535433"><name>15 (8 m)</name><desc>score 0.74 | relief 1.00 | slope 0.75 | shelter 0.35</desc><sym>Fishing Hot Spot</sym></wpt><wpt lat="45.440155" lon="13.503491"><name>16 (8 m)</name><desc>score 0.74 | relief 1.00 | slope 0.56 | shelter 0.50</desc><sym>Fishing Hot Spot</sym></wpt><wpt lat="45.433866" lon="13.511157"><name>17 (7 m)</name><desc>score 0.74 | relief 1.00 | slope 0.61 | shelter 0.46</desc><sym>Fishing Hot Spot</sym></wpt><wpt lat="45.422188" lon="13.511157"><name>18 (11 m)</name><desc>score 0.73 | relief 1.00 | slope 0.57 | shelter 0.46</desc><sym>Fishing Hot Spot</sym></wpt><wpt lat="45.383561" lon="13.530323"><name>19 (9 m)</name><desc>score 0.71 | relief 1.00 | slope 0.59 | shelter 0.37</desc><sym>Fishing Hot Spot</sym></wpt><wpt lat="45.395239" lon="13.529045"><name>20 (7 m)</name><desc>score 0.71 | relief 1.00 | slope 0.58 | shelter 0.38</desc><sym>Fishing Hot Spot</sym></wpt><wpt lat="45.274865" lon="13.572486"><name>21 (7 m)</name><desc>score 0.69 | relief 1.00 | slope 0.78 | shelter 0.17</desc><sym>Fishing Hot Spot</sym></wpt><wpt lat="45.362001" lon="13.539266"><name>22 (9 m)</name><desc>score 0.69 | relief 1.00 | slope 0.58 | shelter 0.33</desc><sym>Fishing Hot Spot</sym></wpt><wpt lat="45.281153" lon="13.576319"><name>23 (7 m)</name><desc>score 0.69 | relief 1.00 | slope 0.79 | shelter 0.14</desc><sym>Fishing Hot Spot</sym></wpt><wpt lat="45.318883" lon="13.536711"><name>24 (12 m)</name><desc>score 0.69 | relief 1.00 | slope 0.55 | shelter 0.34</desc><sym>Fishing Hot Spot</sym></wpt><wpt lat="45.307204" lon="13.540544"><name>25 (16 m)</name><desc>score 0.68 | relief 1.00 | slope 0.54 | shelter 0.32</desc><sym>Fishing Hot Spot</sym></wpt><wpt lat="45.335950" lon="13.537989"><name>26 (9 m)</name><desc>score 0.68 | relief 1.00 | slope 0.52 | shelter 0.33</desc><sym>Fishing Hot Spot</sym></wpt><wpt lat="45.288340" lon="13.569930"><name>27 (7 m)</name><desc>score 0.67 | relief 1.00 | slope 0.67 | shelter 0.17</desc><sym>Fishing Hot Spot</sym></wpt><wpt lat="45.345832" lon="13.525212"><name>28 (14 m)</name><desc>score 0.60 | relief 1.00 | slope 0.15 | shelter 0.39</desc><sym>Fishing Hot Spot</sym></wpt><wpt lat="45.338645" lon="13.523934"><name>29 (15 m)</name><desc>score 0.58 | relief 1.00 | slope 0.11 | shelter 0.40</desc><sym>Fishing Hot Spot</sym></wpt><wpt lat="45.494951" lon="13.470272"><name>30 (20 m)</name><desc>score 0.39 | relief 0.68 | slope 0.04 | shelter 0.95</desc><sym>Fishing Hot Spot</sym></wpt></gpx>