<?xml version='1.0' encoding='utf-8'?>
<gpx version="1.1" creator="fish_finder" xmlns="http://www.topografix.com/GPX/1/1"><metadata><name>Common cuttlefish 2026-08-06</name></metadata><wpt lat="45.179644" lon="13.599317"><name>01 (4 m)</name><desc>score 0.99 | relief 1.00 | slope 1.00 | shelter 0.96</desc><sym>Fishing Hot Spot</sym></wpt><wpt lat="45.230848" lon="13.596761"><name>02 (4 m)</name><desc>score 0.96 | relief 1.00 | slope 0.93 | shelter 0.96</desc><sym>Fishing Hot Spot</sym></wpt><wpt lat="45.276662" lon="13.594206"><name>03 (8 m)</name><desc>score 0.96 | relief 1.00 | slope 0.90 | shelter 0.98</desc><sym>Fishing Hot Spot</sym></wpt><wpt lat="45.299120" lon="13.583985"><name>04 (5 m)</name><desc>score 0.91 | relief 1.00 | slope 0.78 | shelter 0.99</desc><sym>Fishing Hot Spot</sym></wpt><wpt lat="45.492257" lon="13.494548"><name>05 (3 m)</name><desc>score 0.90 | relief 1.00 | slope 0.75 | shelter 0.99</desc><sym>Fishing Hot Spot</sym></wpt><wpt lat="45.353917" lon="13.548210"><name>06 (3 m)</name><desc>score 0.85 | relief 1.00 | slope 0.65 | shelter 0.96</desc><sym>Fishing Hot Spot</sym></wpt><wpt lat="45.151797" lon="13.598039"><name>07 (5 m)</name><desc>score 0.85 | relief 1.00 | slope 0.60 | shelter 0.99</desc><sym>Fishing Hot Spot</sym></wpt><wpt lat="45.167068" lon="13.595484"><name>08 (4 m)</name><desc>score 0.81 | relief 1.00 | slope 0.52 | shelter 0.99</desc><sym>Fishing Hot Spot</sym></wpt><wpt lat="45.423985" lon="13.521379"><name>09 (3 m)</name><desc>score 0.81 | relief 1.00 | slope 0.96 | shelter 0.98</desc><sym>Fishing Hot Spot</sym></wpt><wpt lat="45.206594" lon="13.585262"><name>10 (10 m)</name><desc>score 0.77 | relief 1.00 | slope 0.41 | shelter 0.99</desc><sym>Fishing Hot Spot</sym></wpt><wpt lat="45.414103" lon="13.521379"><name>11 (3 m)</name><desc>score 0.69 | relief 1.00 | slope 0.98 | shelter 0.00</desc><sym>Fishing Hot Spot</sym></wpt><wpt lat="45.332357" lon="13.541822"><name>12 (4 m)</name><desc>score 0.69 | relief 0.57 | slope 0.55 | shelter 0.99</desc><sym>Fishing Hot Spot</sym></wpt></gpx>