{
 "type": "FeatureCollection",
 "properties": {
  "generated": "2026-08-06T05:44:36+00:00"
 },
 "features": [
  {
   "type": "Feature",
   "geometry": {
    "type": "Point",
    "coordinates": [
     13.520101,
     45.415002
    ]
   },
   "properties": {
    "score": 0.97,
    "depth_m": 2.7,
    "relief": 1.0,
    "slope": 0.894,
    "shelter": 0.985
   }
  },
  {
   "type": "Feature",
   "geometry": {
    "type": "Point",
    "coordinates": [
     13.594206,
     45.276662
    ]
   },
   "properties": {
    "score": 0.961,
    "depth_m": 7.7,
    "relief": 1.0,
    "slope": 0.902,
    "shelter": 0.955
   }
  },
  {
   "type": "Feature",
   "geometry": {
    "type": "Point",
    "coordinates": [
     13.596761,
     45.177848
    ]
   },
   "properties": {
    "score": 0.945,
    "depth_m": 2.7,
    "relief": 1.0,
    "slope": 0.832,
    "shelter": 0.955
   }
  },
  {
   "type": "Feature",
   "geometry": {
    "type": "Point",
    "coordinates": [
     13.583985,
     45.29912
    ]
   },
   "properties": {
    "score": 0.94,
    "depth_m": 4.8,
    "relief": 1.0,
    "slope": 0.781,
    "shelter": 0.978
   }
  },
  {
   "type": "Feature",
   "geometry": {
    "type": "Point",
    "coordinates": [
     13.591651,
     45.252407
    ]
   },
   "properties": {
    "score": 0.938,
    "depth_m": 8.7,
    "relief": 1.0,
    "slope": 0.783,
    "shelter": 0.97
   }
  },
  {
   "type": "Feature",
   "geometry": {
    "type": "Point",
    "coordinates": [
     13.573763,
     45.313493
    ]
   },
   "properties": {
    "score": 0.931,
    "depth_m": 0.3,
    "relief": 1.0,
    "slope": 0.753,
    "shelter": 0.97
   }
  },
  {
   "type": "Feature",
   "geometry": {
    "type": "Point",
    "coordinates": [
     13.600594,
     45.162576
    ]
   },
   "properties": {
    "score": 0.923,
    "depth_m": 1.9,
    "relief": 1.0,
    "slope": 0.763,
    "shelter": 0.94
   }
  },
  {
   "type": "Feature",
   "geometry": {
    "type": "Point",
    "coordinates": [
     13.591651,
     45.229051
    ]
   },
   "properties": {
    "score": 0.882,
    "depth_m": 2.2,
    "relief": 1.0,
    "slope": 0.531,
    "shelter": 0.978
   }
  },
  {
   "type": "Feature",
   "geometry": {
    "type": "Point",
    "coordinates": [
     13.585262,
     45.206594
    ]
   },
   "properties": {
    "score": 0.856,
    "depth_m": 9.5,
    "relief": 1.0,
    "slope": 0.408,
    "shelter": 0.985
   }
  },
  {
   "type": "Feature",
   "geometry": {
    "type": "Point",
    "coordinates": [
     13.581429,
     45.192221
    ]
   },
   "properties": {
    "score": 0.849,
    "depth_m": 5.4,
    "relief": 1.0,
    "slope": 0.371,
    "shelter": 0.993
   }
  },
  {
   "type": "Feature",
   "geometry": {
    "type": "Point",
    "coordinates": [
     13.58654,
     45.163475
    ]
   },
   "properties": {
    "score": 0.842,
    "depth_m": 5.0,
    "relief": 1.0,
    "slope": 0.339,
    "shelter": 0.993
   }
  },
  {
   "type": "Feature",
   "geometry": {
    "type": "Point",
    "coordinates": [
     13.494548,
     45.492257
    ]
   },
   "properties": {
    "score": 0.815,
    "depth_m": 3.4,
    "relief": 1.0,
    "slope": 0.752,
    "shelter": 0.64
   }
  },
  {
   "type": "Feature",
   "geometry": {
    "type": "Point",
    "coordinates": [
     13.518823,
     45.422188
    ]
   },
   "properties": {
    "score": 0.795,
    "depth_m": 0.1,
    "relief": 0.699,
    "slope": 0.665,
    "shelter": 0.993
   }
  },
  {
   "type": "Feature",
   "geometry": {
    "type": "Point",
    "coordinates": [
     13.576319,
     45.263187
    ]
   },
   "properties": {
    "score": 0.768,
    "depth_m": 0.0,
    "relief": 0.607,
    "slope": 0.714,
    "shelter": 0.993
   }
  },
  {
   "type": "Feature",
   "geometry": {
    "type": "Point",
    "coordinates": [
     13.461328,
     45.494951
    ]
   },
   "properties": {
    "score": 0.725,
    "depth_m": 22.8,
    "relief": 0.962,
    "slope": 0.236,
    "shelter": 0.775
   }
  },
  {
   "type": "Feature",
   "geometry": {
    "type": "Point",
    "coordinates": [
     13.595484,
     45.150898
    ]
   },
   "properties": {
    "score": 0.684,
    "depth_m": 8.0,
    "relief": 0.595,
    "slope": 0.375,
    "shelter": 0.993
   }
  },
  {
   "type": "Feature",
   "geometry": {
    "type": "Point",
    "coordinates": [
     13.550765,
     45.354815
    ]
   },
   "properties": {
    "score": 0.647,
    "depth_m": 0.4,
    "relief": 1.0,
    "slope": 1.0,
    "shelter": 0.0
   }
  },
  {
   "type": "Feature",
   "geometry": {
    "type": "Point",
    "coordinates": [
     13.516268,
     45.438358
    ]
   },
   "properties": {
    "score": 0.647,
    "depth_m": 0.3,
    "relief": 1.0,
    "slope": 1.0,
    "shelter": 0.0
   }
  },
  {
   "type": "Feature",
   "geometry": {
    "type": "Point",
    "coordinates": [
     13.511157,
     45.466206
    ]
   },
   "properties": {
    "score": 0.647,
    "depth_m": 0.3,
    "relief": 1.0,
    "slope": 1.0,
    "shelter": 0.0
   }
  },
  {
   "type": "Feature",
   "geometry": {
    "type": "Point",
    "coordinates": [
     13.598039,
     45.244323
    ]
   },
   "properties": {
    "score": 0.638,
    "depth_m": 4.3,
    "relief": 1.0,
    "slope": 0.961,
    "shelter": 0.0
   }
  },
  {
   "type": "Feature",
   "geometry": {
    "type": "Point",
    "coordinates": [
     13.507324,
     45.47429
    ]
   },
   "properties": {
    "score": 0.637,
    "depth_m": 1.3,
    "relief": 1.0,
    "slope": 0.957,
    "shelter": 0.0
   }
  },
  {
   "type": "Feature",
   "geometry": {
    "type": "Point",
    "coordinates": [
     13.51499,
     45.453629
    ]
   },
   "properties": {
    "score": 0.62,
    "depth_m": 3.8,
    "relief": 1.0,
    "slope": 0.887,
    "shelter": 0.0
   }
  },
  {
   "type": "Feature",
   "geometry": {
    "type": "Point",
    "coordinates": [
     13.534156,
     45.399731
    ]
   },
   "properties": {
    "score": 0.613,
    "depth_m": 3.4,
    "relief": 1.0,
    "slope": 0.854,
    "shelter": 0.0
   }
  },
  {
   "type": "Feature",
   "geometry": {
    "type": "Point",
    "coordinates": [
     13.535433,
     45.393442
    ]
   },
   "properties": {
    "score": 0.609,
    "depth_m": 2.2,
    "relief": 1.0,
    "slope": 0.84,
    "shelter": 0.0
   }
  },
  {
   "type": "Feature",
   "geometry": {
    "type": "Point",
    "coordinates": [
     13.591651,
     45.218272
    ]
   },
   "properties": {
    "score": 0.601,
    "depth_m": 5.8,
    "relief": 1.0,
    "slope": 0.804,
    "shelter": 0.0
   }
  },
  {
   "type": "Feature",
   "geometry": {
    "type": "Point",
    "coordinates": [
     13.539266,
     45.379968
    ]
   },
   "properties": {
    "score": 0.592,
    "depth_m": 0.1,
    "relief": 1.0,
    "slope": 0.766,
    "shelter": 0.0
   }
  },
  {
   "type": "Feature",
   "geometry": {
    "type": "Point",
    "coordinates": [
     13.541822,
     45.370985
    ]
   },
   "properties": {
    "score": 0.585,
    "depth_m": 4.9,
    "relief": 1.0,
    "slope": 0.737,
    "shelter": 0.0
   }
  },
  {
   "type": "Feature",
   "geometry": {
    "type": "Point",
    "coordinates": [
     13.550765,
     45.323374
    ]
   },
   "properties": {
    "score": 0.585,
    "depth_m": 2.6,
    "relief": 1.0,
    "slope": 0.737,
    "shelter": 0.0
   }
  },
  {
   "type": "Feature",
   "geometry": {
    "type": "Point",
    "coordinates": [
     13.543099,
     45.34134
    ]
   },
   "properties": {
    "score": 0.583,
    "depth_m": 3.9,
    "relief": 1.0,
    "slope": 0.728,
    "shelter": 0.0
   }
  },
  {
   "type": "Feature",
   "geometry": {
    "type": "Point",
    "coordinates": [
     13.535433,
     45.350323
    ]
   },
   "properties": {
    "score": 0.575,
    "depth_m": 9.2,
    "relief": 1.0,
    "slope": 0.696,
    "shelter": 0.0
   }
  }
 ]
}