<?xml version='1.0' encoding='utf-8'?>
<gpx version="1.1" creator="fish_finder" xmlns="http://www.topografix.com/GPX/1/1"><metadata><name>Two-banded seabream 2026-08-07</name></metadata><wpt lat="45.252407" lon="13.591651"><name>01 (9 m)</name><desc>score 0.92 | relief 1.00 | slope 0.78 | shelter 0.97</desc><sym>Fishing Hot Spot</sym></wpt><wpt lat="45.184136" lon="13.595484"><name>02 (5 m)</name><desc>score 0.91 | relief 1.00 | slope 0.71 | shelter 0.98</desc><sym>Fishing Hot Spot</sym></wpt><wpt lat="45.282950" lon="13.591651"><name>03 (9 m)</name><desc>score 0.86 | relief 1.00 | slope 0.57 | shelter 0.98</desc><sym>Fishing Hot Spot</sym></wpt><wpt lat="45.313493" lon="13.568653"><name>04 (6 m)</name><desc>score 0.84 | relief 1.00 | slope 0.51 | shelter 0.98</desc><sym>Fishing Hot Spot</sym></wpt><wpt lat="45.192221" lon="13.581429"><name>05 (5 m)</name><desc>score 0.80 | relief 1.00 | slope 0.37 | shelter 0.99</desc><sym>Fishing Hot Spot</sym></wpt><wpt lat="45.229051" lon="13.587818"><name>06 (7 m)</name><desc>score 0.79 | relief 1.00 | slope 0.35 | shelter 0.99</desc><sym>Fishing Hot Spot</sym></wpt><wpt lat="45.163475" lon="13.586540"><name>07 (5 m)</name><desc>score 0.79 | relief 1.00 | slope 0.34 | shelter 0.99</desc><sym>Fishing Hot Spot</sym></wpt><wpt lat="45.472494" lon="13.508602"><name>08 (5 m)</name><desc>score 0.79 | relief 1.00 | slope 0.75 | shelter 0.56</desc><sym>Fishing Hot Spot</sym></wpt><wpt lat="45.177848" lon="13.590373"><name>09 (6 m)</name><desc>score 0.77 | relief 1.00 | slope 0.29 | shelter 0.98</desc><sym>Fishing Hot Spot</sym></wpt><wpt lat="45.276662" lon="13.587818"><name>10 (10 m)</name><desc>score 0.77 | relief 1.00 | slope 0.28 | shelter 0.98</desc><sym>Fishing Hot Spot</sym></wpt><wpt lat="45.262289" lon="13.578874"><name>11 (6 m)</name><desc>score 0.74 | relief 0.51 | slope 0.79 | shelter 0.98</desc><sym>Fishing Hot Spot</sym></wpt><wpt lat="45.206594" lon="13.582707"><name>12 (10 m)</name><desc>score 0.73 | relief 1.00 | slope 0.15 | shelter 0.99</desc><sym>Fishing Hot Spot</sym></wpt></gpx>