<?xml version='1.0' encoding='utf-8'?>
<gpx version="1.1" creator="fish_finder" xmlns="http://www.topografix.com/GPX/1/1"><metadata><name>Gilthead seabream 2026-08-06</name></metadata><wpt lat="45.276662" lon="13.594206"><name>01 (8 m)</name><desc>score 0.95 | relief 1.00 | slope 0.90 | shelter 0.95</desc><sym>Fishing Hot Spot</sym></wpt><wpt lat="45.299120" lon="13.583985"><name>02 (5 m)</name><desc>score 0.91 | relief 1.00 | slope 0.78 | shelter 0.98</desc><sym>Fishing Hot Spot</sym></wpt><wpt lat="45.252407" lon="13.591651"><name>03 (9 m)</name><desc>score 0.91 | relief 1.00 | slope 0.78 | shelter 0.97</desc><sym>Fishing Hot Spot</sym></wpt><wpt lat="45.313493" lon="13.569930"><name>04 (5 m)</name><desc>score 0.83 | relief 1.00 | slope 0.57 | shelter 0.97</desc><sym>Fishing Hot Spot</sym></wpt><wpt lat="45.162576" lon="13.596761"><name>05 (7 m)</name><desc>score 0.81 | relief 1.00 | slope 0.52 | shelter 0.95</desc><sym>Fishing Hot Spot</sym></wpt><wpt lat="45.492257" lon="13.494548"><name>06 (3 m)</name><desc>score 0.80 | relief 1.00 | slope 0.75 | shelter 0.64</desc><sym>Fishing Hot Spot</sym></wpt><wpt lat="45.177848" lon="13.592928"><name>07 (5 m)</name><desc>score 0.78 | relief 1.00 | slope 0.42 | shelter 0.98</desc><sym>Fishing Hot Spot</sym></wpt><wpt lat="45.206594" lon="13.585262"><name>08 (10 m)</name><desc>score 0.78 | relief 1.00 | slope 0.41 | shelter 0.98</desc><sym>Fishing Hot Spot</sym></wpt><wpt lat="45.192221" lon="13.581429"><name>09 (5 m)</name><desc>score 0.76 | relief 1.00 | slope 0.37 | shelter 0.99</desc><sym>Fishing Hot Spot</sym></wpt><wpt lat="45.229051" lon="13.587818"><name>10 (7 m)</name><desc>score 0.76 | relief 1.00 | slope 0.35 | shelter 0.99</desc><sym>Fishing Hot Spot</sym></wpt><wpt lat="45.163475" lon="13.586540"><name>11 (5 m)</name><desc>score 0.75 | relief 1.00 | slope 0.34 | shelter 0.99</desc><sym>Fishing Hot Spot</sym></wpt><wpt lat="45.415002" lon="13.520101"><name>12 (3 m)</name><desc>score 0.70 | relief 1.00 | slope 0.89 | shelter 0.98</desc><sym>Fishing Hot Spot</sym></wpt></gpx>