<?xml version='1.0' encoding='utf-8'?>
<gpx version="1.1" creator="fish_finder" xmlns="http://www.topografix.com/GPX/1/1"><metadata><name>orada / gilthead seabream 2026-08-03</name></metadata><wpt lat="45.179644" lon="13.599317"><name>01 (4 m)</name><desc>score 0.99 | relief 1.00 | slope 1.00 | shelter 0.98</desc><sym>Fishing Hot Spot</sym></wpt><wpt lat="45.230848" lon="13.596761"><name>02 (4 m)</name><desc>score 0.97 | relief 1.00 | slope 0.93 | shelter 0.98</desc><sym>Fishing Hot Spot</sym></wpt><wpt lat="45.276662" lon="13.594206"><name>03 (8 m)</name><desc>score 0.96 | relief 1.00 | slope 0.90 | shelter 0.98</desc><sym>Fishing Hot Spot</sym></wpt><wpt lat="45.357510" lon="13.550765"><name>04 (5 m)</name><desc>score 0.96 | relief 1.00 | slope 0.92 | shelter 0.96</desc><sym>Fishing Hot Spot</sym></wpt><wpt lat="45.244323" lon="13.598039"><name>05 (4 m)</name><desc>score 0.96 | relief 1.00 | slope 0.96 | shelter 0.90</desc><sym>Fishing Hot Spot</sym></wpt><wpt lat="45.493155" lon="13.495825"><name>06 (6 m)</name><desc>score 0.93 | relief 1.00 | slope 0.83 | shelter 0.98</desc><sym>Fishing Hot Spot</sym></wpt><wpt lat="45.299120" lon="13.583985"><name>07 (5 m)</name><desc>score 0.92 | relief 1.00 | slope 0.78 | shelter 0.99</desc><sym>Fishing Hot Spot</sym></wpt><wpt lat="45.216475" lon="13.591651"><name>08 (8 m)</name><desc>score 0.91 | relief 1.00 | slope 0.78 | shelter 0.98</desc><sym>Fishing Hot Spot</sym></wpt><wpt lat="45.390747" lon="13.535433"><name>09 (4 m)</name><desc>score 0.90 | relief 1.00 | slope 0.73 | shelter 0.98</desc><sym>Fishing Hot Spot</sym></wpt><wpt lat="45.259594" lon="13.578874"><name>10 (4 m)</name><desc>score 0.89 | relief 1.00 | slope 0.70 | shelter 0.98</desc><sym>Fishing Hot Spot</sym></wpt><wpt lat="45.156288" lon="13.601872"><name>11 (8 m)</name><desc>score 0.87 | relief 1.00 | slope 0.66 | shelter 0.98</desc><sym>Fishing Hot Spot</sym></wpt><wpt lat="45.251509" lon="13.591651"><name>12 (7 m)</name><desc>score 0.85 | relief 1.00 | slope 0.62 | shelter 0.98</desc><sym>Fishing Hot Spot</sym></wpt><wpt lat="45.333255" lon="13.541822"><name>13 (6 m)</name><desc>score 0.84 | relief 1.00 | slope 0.59 | shelter 0.98</desc><sym>Fishing Hot Spot</sym></wpt><wpt lat="45.269475" lon="13.578874"><name>14 (6 m)</name><desc>score 0.81 | relief 1.00 | slope 0.49 | shelter 0.98</desc><sym>Fishing Hot Spot</sym></wpt><wpt lat="45.202102" lon="13.585262"><name>15 (10 m)</name><desc>score 0.80 | relief 1.00 | slope 0.48 | shelter 0.98</desc><sym>Fishing Hot Spot</sym></wpt><wpt lat="45.378171" lon="13.537989"><name>16 (7 m)</name><desc>score 0.79 | relief 1.00 | slope 0.45 | shelter 0.98</desc><sym>Fishing Hot Spot</sym></wpt><wpt lat="45.424883" lon="13.517546"><name>17 (7 m)</name><desc>score 0.76 | relief 1.00 | slope 0.37 | shelter 0.98</desc><sym>Fishing Hot Spot</sym></wpt><wpt lat="45.473392" lon="13.508602"><name>18 (4 m)</name><desc>score 0.67 | relief 1.00 | slope 0.92 | shelter 0.00</desc><sym>Fishing Hot Spot</sym></wpt><wpt lat="45.411409" lon="13.517546"><name>19 (7 m)</name><desc>score 0.67 | relief 1.00 | slope 0.91 | shelter 0.00</desc><sym>Fishing Hot Spot</sym></wpt><wpt lat="45.447341" lon="13.513713"><name>20 (4 m)</name><desc>score 0.62 | relief 0.15 | slope 0.73 | shelter 0.98</desc><sym>Fishing Hot Spot</sym></wpt><wpt lat="45.400629" lon="13.532878"><name>21 (6 m)</name><desc>score 0.61 | relief 1.00 | slope 0.76 | shelter 0.00</desc><sym>Fishing Hot Spot</sym></wpt><wpt lat="45.455426" lon="13.513713"><name>22 (5 m)</name><desc>score 0.61 | relief 1.00 | slope 0.75 | shelter 0.00</desc><sym>Fishing Hot Spot</sym></wpt><wpt lat="45.370985" lon="13.541822"><name>23 (5 m)</name><desc>score 0.60 | relief 1.00 | slope 0.74 | shelter 0.00</desc><sym>Fishing Hot Spot</sym></wpt><wpt lat="45.189526" lon="13.576319"><name>24 (7 m)</name><desc>score 0.58 | relief 1.00 | slope 0.69 | shelter 0.00</desc><sym>Fishing Hot Spot</sym></wpt><wpt lat="45.289238" lon="13.568653"><name>25 (10 m)</name><desc>score 0.56 | relief 0.98 | slope 0.64 | shelter 0.00</desc><sym>Fishing Hot Spot</sym></wpt><wpt lat="45.324272" lon="13.549488"><name>26 (6 m)</name><desc>score 0.56 | relief 1.00 | slope 0.62 | shelter 0.00</desc><sym>Fishing Hot Spot</sym></wpt><wpt lat="45.464409" lon="13.511157"><name>27 (4 m)</name><desc>score 0.55 | relief 1.00 | slope 0.59 | shelter 0.00</desc><sym>Fishing Hot Spot</sym></wpt><wpt lat="45.313493" lon="13.569930"><name>28 (5 m)</name><desc>score 0.54 | relief 1.00 | slope 0.57 | shelter 0.00</desc><sym>Fishing Hot Spot</sym></wpt><wpt lat="45.433866" lon="13.511157"><name>29 (7 m)</name><desc>score 0.54 | relief 1.00 | slope 0.56 | shelter 0.00</desc><sym>Fishing Hot Spot</sym></wpt><wpt lat="45.469799" lon="13.497103"><name>30 (6 m)</name><desc>score 0.53 | relief 1.00 | slope 0.53 | shelter 0.00</desc><sym>Fishing Hot Spot</sym></wpt></gpx>