<?xml version='1.0' encoding='utf-8'?>
<gpx version="1.1" creator="fish_finder" xmlns="http://www.topografix.com/GPX/1/1"><metadata><name>European seabass 2026-08-10</name></metadata><wpt lat="45.179644" lon="13.599317"><name>01 (4 m)</name><desc>score 0.99 | relief 1.00 | slope 1.00 | shelter 0.98</desc><sym>Fishing Hot Spot</sym></wpt><wpt lat="45.230848" lon="13.596761"><name>02 (4 m)</name><desc>score 0.97 | relief 1.00 | slope 0.93 | shelter 0.98</desc><sym>Fishing Hot Spot</sym></wpt><wpt lat="45.276662" lon="13.594206"><name>03 (8 m)</name><desc>score 0.96 | relief 1.00 | slope 0.90 | shelter 0.98</desc><sym>Fishing Hot Spot</sym></wpt><wpt lat="45.424883" lon="13.521379"><name>04 (3 m)</name><desc>score 0.96 | relief 1.00 | slope 0.90 | shelter 0.98</desc><sym>Fishing Hot Spot</sym></wpt><wpt lat="45.355713" lon="13.550765"><name>05 (3 m)</name><desc>score 0.94 | relief 1.00 | slope 0.89 | shelter 0.95</desc><sym>Fishing Hot Spot</sym></wpt><wpt lat="45.493155" lon="13.495825"><name>06 (6 m)</name><desc>score 0.93 | relief 1.00 | slope 0.83 | shelter 0.98</desc><sym>Fishing Hot Spot</sym></wpt><wpt lat="45.299120" lon="13.583985"><name>07 (5 m)</name><desc>score 0.91 | relief 1.00 | slope 0.78 | shelter 0.99</desc><sym>Fishing Hot Spot</sym></wpt><wpt lat="45.151797" lon="13.598039"><name>08 (5 m)</name><desc>score 0.84 | relief 1.00 | slope 0.60 | shelter 0.99</desc><sym>Fishing Hot Spot</sym></wpt><wpt lat="45.167068" lon="13.595484"><name>09 (4 m)</name><desc>score 0.81 | relief 1.00 | slope 0.52 | shelter 0.99</desc><sym>Fishing Hot Spot</sym></wpt><wpt lat="45.249713" lon="13.591651"><name>10 (2 m)</name><desc>score 0.77 | relief 0.78 | slope 0.59 | shelter 0.99</desc><sym>Fishing Hot Spot</sym></wpt><wpt lat="45.206594" lon="13.585262"><name>11 (10 m)</name><desc>score 0.77 | relief 1.00 | slope 0.41 | shelter 0.99</desc><sym>Fishing Hot Spot</sym></wpt><wpt lat="45.413205" lon="13.522656"><name>12 (3 m)</name><desc>score 0.70 | relief 1.00 | slope 1.00 | shelter 0.00</desc><sym>Fishing Hot Spot</sym></wpt></gpx>